{
"type": "FeatureCollection",
"name": "division_boundary",
"crs": { "type": "name", "properties": { "name": "urn:ogc:def:crs:OGC:1.3:CRS84" } },
"features": [
{ "type": "Feature", "properties": { "APREC": "SOUTHWEST", "OBJECTID": 800, "REPDIST": 309, "PREC": 3, "BUREAU": "SOUTH BUREAU", "BASICCAR": "3A19", "TOOLTIP": "Bureau: SOUTH BUREAU\\nDistrict: 309\\nDivision: SOUTHWEST" }, "geometry": { "type": "Polygon", "coordinates": [ [ [ -118.33987183806417, 34.005743352265668 ], [ -118.340026524726099, 34.005647771786627 ], [ -118.340141731033768, 34.005580124501357 ], [ -118.340255256732277, 34.005504925217636 ], [ -118.340436193644166, 34.005373547073226 ], [ -118.340572716854595, 34.005274238810642 ], [ -118.340684629789266, 34.005208317714008 ], [ -118.340873896727786, 34.005097525280362 ], [ -118.340964418732682, 34.005045060172449 ], [ -118.34111749794215, 34.004960473387747 ], [ -118.341157022117713, 34.004943531007719 ], [ -118.341262412373467, 34.004896519376189 ], [ -118.341352977653116, 34.004855045309903 ], [ -118.341438648073648, 34.004826637377022 ], [ -118.341585264980182, 34.004775730514801 ], [ -118.341830832482231, 34.004716986640588 ], [ -118.342111037246013, 34.004656426675744 ], [ -118.342280917650228, 34.004646670984634 ], [ -118.342381510948414, 34.004637111625556 ], [ -118.342549696291883, 34.004616025425051 ], [ -118.342653626864688, 34.004615730408503 ], [ -118.344969798054905, 34.004609132521132 ], [ -118.345707211159336, 34.004607022584082 ], [ -118.345918379820901, 34.004608134959156 ], [ -118.346162619347965, 34.004628043686793 ], [ -118.346454701143045, 34.004647814598023 ], [ -118.346573525895181, 34.004658808392151 ], [ -118.346849165046748, 34.004691677919602 ], [ -118.347139727486493, 34.004743051982622 ], [ -118.347791839958319, 34.004857271902161 ], [ -118.348802187410683, 34.005029877029315 ], [ -118.348952411713228, 34.005053830094347 ], [ -118.349133981491164, 34.005077692303736 ], [ -118.349274283407269, 34.005095834458146 ], [ -118.34934855147344, 34.005103176141922 ], [ -118.349924298142298, 34.005101508282976 ], [ -118.35021941604397, 34.005057716913413 ], [ -118.350333159092173, 34.005036777825616 ], [ -118.350483133627719, 34.005000963650119 ], [ -118.35065454655971, 34.004963026106211 ], [ -118.350779758091235, 34.00492316080414 ], [ -118.35099889419277, 34.004857261928834 ], [ -118.351059830673407, 34.004832697399216 ], [ -118.351229467930111, 34.004764881171155 ], [ -118.351346400155904, 34.004717827129284 ], [ -118.35150108624272, 34.004625666739869 ], [ -118.351612982490749, 34.004558018118523 ], [ -118.351682057357266, 34.004507324847822 ], [ -118.351775793382259, 34.004436293256944 ], [ -118.351879400299012, 34.004359051020671 ], [ -118.352006017396064, 34.004261476083968 ], [ -118.352135917669528, 34.004160113120939 ], [ -118.352461202222543, 34.003837662534565 ], [ -118.352827552288815, 34.003473873055711 ], [ -118.353280975018336, 34.003025674261814 ], [ -118.353602974662721, 34.002708726841888 ], [ -118.353867463610086, 34.002446216625628 ], [ -118.354036658356947, 34.00227569629282 ], [ -118.354127064816112, 34.002198833426988 ], [ -118.354258530474823, 34.002078915495453 ], [ -118.354416357612308, 34.001951019899749 ], [ -118.354768247806319, 34.001682755285131 ], [ -118.354868558026851, 34.001607581067297 ], [ -118.355251892799942, 34.001363610778768 ], [ -118.355365422530568, 34.001293892062343 ], [ -118.355513405645098, 34.00117941985453 ], [ -118.355705792773151, 34.001033216157367 ], [ -118.355779762940998, 34.00097117116691 ], [ -118.355907925067214, 34.000851260272348 ], [ -118.356021280822048, 34.000740667864861 ], [ -118.356126330150119, 34.000616704021311 ], [ -118.356233014161234, 34.000489300430516 ], [ -118.356365717262179, 34.000273887349259 ], [ -118.356485294541685, 34.000075344466836 ], [ -118.356560325887173, 33.999875214765304 ], [ -118.356620692344094, 33.999718064638508 ], [ -118.356746929592546, 33.999147165276952 ], [ -118.356856121836515, 33.998447852639728 ], [ -118.356888268380672, 33.99824956786442 ], [ -118.356904381858882, 33.998159870237487 ], [ -118.356954687979382, 33.997964966572638 ], [ -118.357042919003419, 33.997766515863795 ], [ -118.357187307258116, 33.997584728663767 ], [ -118.357215230939005, 33.997556823889603 ], [ -118.357338396089617, 33.99742730964801 ], [ -118.357394249092081, 33.997372873938659 ], [ -118.357484655977899, 33.997298070355434 ], [ -118.357591492131661, 33.99720776038702 ], [ -118.357718045875743, 33.997099188181537 ], [ -118.358126769975712, 33.997398868028156 ], [ -118.358147147887209, 33.997535170322152 ], [ -118.358255680412995, 33.998226624853693 ], [ -118.358301379955719, 33.998497840803608 ], [ -118.358382535448499, 33.99895924198303 ], [ -118.358484864393063, 33.999357035861991 ], [ -118.35860677464386, 33.999704622953381 ], [ -118.358851253604229, 34.000167599356914 ], [ -118.358929369569694, 34.000303729857457 ], [ -118.359205273245166, 34.000785160199214 ], [ -118.359326989151185, 34.001086033482004 ], [ -118.359340547324564, 34.001170146482636 ], [ -118.359377801850599, 34.001394330946191 ], [ -118.359378932766646, 34.001657779150136 ], [ -118.35936178203508, 34.001889682246087 ], [ -118.359269084164652, 34.002200466994843 ], [ -118.358764817637493, 34.003864085692747 ], [ -118.357992107790054, 34.006412626539358 ], [ -118.357808271143227, 34.007017359582299 ], [ -118.357730545649744, 34.007359700188971 ], [ -118.357729079380178, 34.007402639941006 ], [ -118.35771183483304, 34.007613933249864 ], [ -118.357725503996932, 34.007724151764627 ], [ -118.357782710115501, 34.008370762092532 ], [ -118.357816424821962, 34.008538969854754 ], [ -118.357823239721014, 34.008589441693182 ], [ -118.357842011202834, 34.008735366435573 ], [ -118.35784279380303, 34.00891844070447 ], [ -118.357792585938157, 34.009137389300669 ], [ -118.358490171761602, 34.009071775022313 ], [ -118.358587476325113, 34.009063929348159 ], [ -118.360174494341038, 34.008659045104494 ], [ -118.361450039382333, 34.00833579168593 ], [ -118.361418202239619, 34.007839896221327 ], [ -118.361434241529253, 34.007733711851692 ], [ -118.361471916971226, 34.007671085064942 ], [ -118.361527808238591, 34.007624547421116 ], [ -118.361654662385646, 34.007583291973766 ], [ -118.361689264077313, 34.007573227274158 ], [ -118.361855679358541, 34.007524297327116 ], [ -118.361995734142766, 34.007483689812226 ], [ -118.361990438829224, 34.007403674084102 ], [ -118.361983584382699, 34.007344615513446 ], [ -118.361986750196778, 34.007313692521819 ], [ -118.361989832832691, 34.007263534714788 ], [ -118.361997733982335, 34.00718313592602 ], [ -118.362012362895527, 34.007132255620412 ], [ -118.362039961345843, 34.007028784368231 ], [ -118.362093918361722, 34.006916646954615 ], [ -118.362125079099656, 34.006873961539554 ], [ -118.362185732914043, 34.006784473890143 ], [ -118.362318799358022, 34.006654236927744 ], [ -118.362419089423526, 34.006574591186364 ], [ -118.362522745688764, 34.006510391998894 ], [ -118.362595138411734, 34.006464834745323 ], [ -118.362652527688525, 34.006383600267355 ], [ -118.362655696195176, 34.006353364217603 ], [ -118.362658875115599, 34.006325532519568 ], [ -118.36386973592748, 34.00593340763929 ], [ -118.364306301973158, 34.00579194861907 ], [ -118.36484665161997, 34.005616513875118 ], [ -118.365047634660144, 34.005551331301675 ], [ -118.365686289838735, 34.005976692118892 ], [ -118.366242223297263, 34.00634699981039 ], [ -118.366618668853988, 34.00679272966412 ], [ -118.366864114860988, 34.007085318653473 ], [ -118.367180914017567, 34.007095346784041 ], [ -118.367176499633715, 34.00721729770801 ], [ -118.367059298257544, 34.009459231268579 ], [ -118.367015356379667, 34.010349332227648 ], [ -118.366977415036075, 34.011103051144204 ], [ -118.366939307388961, 34.011818988307937 ], [ -118.366790444404316, 34.014745581970182 ], [ -118.366744764212953, 34.015616796784158 ], [ -118.368886711023066, 34.015692706095834 ], [ -118.370391695133193, 34.015747864560723 ], [ -118.372657416377692, 34.015828822862986 ], [ -118.3727856999745, 34.013513686347459 ], [ -118.372828698762831, 34.012795671105444 ], [ -118.372875955829329, 34.011922388164706 ], [ -118.373182759078205, 34.011906670216959 ], [ -118.373456468191407, 34.012608592818836 ], [ -118.373559765811891, 34.012833941874781 ], [ -118.373738063584184, 34.013228396950979 ], [ -118.373899644963572, 34.013573785407985 ], [ -118.373964773445778, 34.013748760276499 ], [ -118.374013308770245, 34.013902834930477 ], [ -118.374048499448222, 34.014024319077294 ], [ -118.374068704717473, 34.014115279615481 ], [ -118.374117616563353, 34.014353506546726 ], [ -118.374127996376743, 34.014460984742229 ], [ -118.374152201715333, 34.014708561395103 ], [ -118.374152891080982, 34.014862784299829 ], [ -118.374158353563658, 34.014977490894012 ], [ -118.37414259616834, 34.015143442321055 ], [ -118.374139744675759, 34.015243748375241 ], [ -118.374123769196217, 34.015360926705718 ], [ -118.374102936064446, 34.015498728205444 ], [ -118.374075441835103, 34.015622811000149 ], [ -118.374036596162071, 34.01579123925324 ], [ -118.374010541387989, 34.015868260317291 ], [ -118.373947081779647, 34.016066990462846 ], [ -118.373903023967117, 34.016177042604653 ], [ -118.373842665815658, 34.016331453701611 ], [ -118.373803412851132, 34.016408859080116 ], [ -118.373675855169623, 34.016663776295282 ], [ -118.372990055392265, 34.017904844627303 ], [ -118.372878743105559, 34.018103722973954 ], [ -118.372759450157474, 34.018363421569525 ], [ -118.375807658790535, 34.018515408568447 ], [ -118.375926183960445, 34.018087057922791 ], [ -118.376549806280295, 34.018071374874467 ], [ -118.377229537189734, 34.018057574179437 ], [ -118.377646922987552, 34.018044590678294 ], [ -118.377991626451163, 34.018012941742406 ], [ -118.378786899023041, 34.01873829181536 ], [ -118.379476923259531, 34.0191740673244 ], [ -118.379786410196303, 34.019380559129182 ], [ -118.380216654425467, 34.01965399177945 ], [ -118.38092011919079, 34.020139521926566 ], [ -118.381326329904454, 34.020568625562575 ], [ -118.381383688383366, 34.020844606254769 ], [ -118.379034078856165, 34.021218161172982 ], [ -118.377963974277534, 34.021389479955957 ], [ -118.377965201028061, 34.022013339151229 ], [ -118.377965248078468, 34.022036944725386 ], [ -118.377665903473755, 34.022251185027862 ], [ -118.377477987996329, 34.022659488945273 ], [ -118.376972996130078, 34.023743042755271 ], [ -118.3768365973458, 34.023867123684013 ], [ -118.376709627604129, 34.024619750444508 ], [ -118.376487721400068, 34.025911257686232 ], [ -118.376926192595178, 34.02617437296589 ], [ -118.377101387955435, 34.02623668339389 ], [ -118.377020882840114, 34.026681060388789 ], [ -118.376976186790301, 34.026856254135275 ], [ -118.376944671336645, 34.026979786764791 ], [ -118.376891853241204, 34.026976860312992 ], [ -118.376550787391253, 34.02782530024934 ], [ -118.376248891906684, 34.028578473032042 ], [ -118.374959618222107, 34.029577215333873 ], [ -118.374344217522605, 34.029974475937522 ], [ -118.373998672810814, 34.030198468817481 ], [ -118.373653099723981, 34.030416277181288 ], [ -118.372592329020705, 34.030118319249887 ], [ -118.371916535190778, 34.029925991082401 ], [ -118.371493309800826, 34.030867754777091 ], [ -118.371409966285015, 34.031052119464064 ], [ -118.370797194544977, 34.032421415086624 ], [ -118.370777920216668, 34.032464024814459 ], [ -118.370025809754381, 34.03412677765057 ], [ -118.369898843023236, 34.034410670768651 ], [ -118.369621650173229, 34.034537449364691 ], [ -118.369376252711191, 34.034650177033249 ], [ -118.369092969676586, 34.034779506350745 ], [ -118.368621932345903, 34.034995279359862 ], [ -118.368451591534921, 34.03507292541989 ], [ -118.36700791036769, 34.03475569166752 ], [ -118.365870138231145, 34.034518250823005 ], [ -118.365104688591742, 34.034348501455419 ], [ -118.364339315882518, 34.034195952760449 ], [ -118.363449867047919, 34.034026566143183 ], [ -118.362602130309384, 34.033943081856506 ], [ -118.361671798177539, 34.033877045716729 ], [ -118.359770249727632, 34.033848313649166 ], [ -118.357352679929235, 34.033975939844616 ], [ -118.355668953515291, 34.034041343067074 ], [ -118.354955623100622, 34.034069044922262 ], [ -118.348780017954951, 34.0343695522388 ], [ -118.348390666595293, 34.034388487019285 ], [ -118.34197889019535, 34.034700129728868 ], [ -118.338828689311043, 34.034851892369417 ], [ -118.338655590289164, 34.034860229456214 ], [ -118.333726803026877, 34.035097503614729 ], [ -118.328383134084916, 34.035354522359675 ], [ -118.327183494296463, 34.035412189288856 ], [ -118.32476656538492, 34.035728436592265 ], [ -118.321068928794247, 34.036237318972553 ], [ -118.318300920662708, 34.036640402021064 ], [ -118.317700811284112, 34.036725293957893 ], [ -118.316813598182804, 34.036850793278425 ], [ -118.315140060547108, 34.037010034307357 ], [ -118.313569731686613, 34.037134568183433 ], [ -118.31204041049277, 34.037172943449711 ], [ -118.310655765180016, 34.03721092719114 ], [ -118.308997218650305, 34.037215183081159 ], [ -118.308588940225533, 34.037216227243775 ], [ -118.306377246539185, 34.037170240650276 ], [ -118.301726518903763, 34.037078711563531 ], [ -118.300285882234547, 34.037078000046115 ], [ -118.29790310920221, 34.037031427148108 ], [ -118.296677954451923, 34.037023111501654 ], [ -118.295602535159446, 34.037014416929509 ], [ -118.293887295148579, 34.036995938675815 ], [ -118.291557544206469, 34.036961182085804 ], [ -118.291273560597332, 34.036956942435658 ], [ -118.290511288282943, 34.03696444503948 ], [ -118.289571956484977, 34.036944037007082 ], [ -118.28868707416396, 34.036923490592287 ], [ -118.287979191371321, 34.036913848799962 ], [ -118.287380207844208, 34.036903942810234 ], [ -118.286835752238844, 34.036916570598997 ], [ -118.286359358564638, 34.036929033628695 ], [ -118.285956392476024, 34.03693938260885 ], [ -118.285599373073339, 34.03695615315803 ], [ -118.285197736839095, 34.036978336257256 ], [ -118.284770667207226, 34.037021811750421 ], [ -118.284464730299788, 34.037059691294203 ], [ -118.284016037535196, 34.037134444968082 ], [ -118.284012262493988, 34.037135074100746 ], [ -118.282954445988395, 34.037331314579298 ], [ -118.282438320556324, 34.037438690806404 ], [ -118.28177562564322, 34.037572949815669 ], [ -118.281304040981567, 34.037653675284439 ], [ -118.281074617164066, 34.037691368848208 ], [ -118.280583902710788, 34.037772136032125 ], [ -118.279747341663622, 34.037886142765089 ], [ -118.279184636529806, 34.037949291052023 ], [ -118.278656333141981, 34.038000222729501 ], [ -118.278194167937926, 34.038030516963026 ], [ -118.277421508200533, 34.038065060829723 ], [ -118.275830839894951, 34.038164452112326 ], [ -118.274910960723048, 34.038230381958513 ], [ -118.27393314811134, 34.03829330973614 ], [ -118.274002067388111, 34.037962921093744 ], [ -118.274075939803282, 34.037523886804166 ], [ -118.274391905404002, 34.035459219932278 ], [ -118.274462375515128, 34.035000052106682 ], [ -118.274476881657989, 34.034871592587415 ], [ -118.274578594104511, 34.034022089503623 ], [ -118.274588042617651, 34.033868784497237 ], [ -118.274597301869605, 34.033657480899599 ], [ -118.274574929845528, 34.032905615322676 ], [ -118.274525689231183, 34.03154689201282 ], [ -118.274510068366709, 34.031335645018572 ], [ -118.27448962148857, 34.031169979522069 ], [ -118.27445342695404, 34.030616618118756 ], [ -118.274450441394563, 34.03054655080458 ], [ -118.274367708562536, 34.029443409866431 ], [ -118.27434695848568, 34.029147039483874 ], [ -118.274355875936806, 34.028850602589237 ], [ -118.274364928288904, 34.028595334643036 ], [ -118.274373980582808, 34.028340065798176 ], [ -118.27441288999438, 34.028142366586209 ], [ -118.274422347066832, 34.028010604572358 ], [ -118.274441705536205, 34.027882936435141 ], [ -118.274510065487277, 34.027619299987251 ], [ -118.274551553621905, 34.027504177685188 ], [ -118.274608065919608, 34.027347361515687 ], [ -118.274706172736643, 34.027108358303835 ], [ -118.274824057859618, 34.026869309992193 ], [ -118.274922244638717, 34.026655007433803 ], [ -118.27503048318097, 34.026490083912485 ], [ -118.275168144147031, 34.02625099111679 ], [ -118.275404151427679, 34.025846996869603 ], [ -118.275738775638374, 34.025360438470955 ], [ -118.276230554625002, 34.024552402082605 ], [ -118.276702413131005, 34.023703240124142 ], [ -118.277390101704043, 34.022338968703039 ], [ -118.278118936766461, 34.021109396194845 ], [ -118.2782062776635, 34.020962046425126 ], [ -118.278757200623204, 34.020112694277579 ], [ -118.279140810697001, 34.019502506578107 ], [ -118.279779991352882, 34.018438867639716 ], [ -118.279996178652496, 34.018034910428973 ], [ -118.280143369733381, 34.017696983207166 ], [ -118.280349389825318, 34.017210710505523 ], [ -118.280486619178205, 34.016852221394856 ], [ -118.280545228982845, 34.016638006280154 ], [ -118.280652698098152, 34.016250767870666 ], [ -118.280730888973437, 34.015978870584505 ], [ -118.280809024096868, 34.015690506050099 ], [ -118.280877077746581, 34.015344529271516 ], [ -118.280925549290686, 34.015056233689847 ], [ -118.280944578120028, 34.014833876843348 ], [ -118.281002494311082, 34.014413817915738 ], [ -118.281000974063247, 34.01396096269039 ], [ -118.280998514060485, 34.01322816057511 ], [ -118.280996606897205, 34.01266003318549 ], [ -118.280974869114402, 34.012075484651007 ], [ -118.280982491000231, 34.011400295693861 ], [ -118.280981482483483, 34.011099844615039 ], [ -118.280981219657406, 34.011021544741233 ], [ -118.281009105990876, 34.009459257508773 ], [ -118.281020271121051, 34.009401455240365 ], [ -118.281028438321741, 34.008888882871744 ], [ -118.281062601123224, 34.005745280201751 ], [ -118.281074004123397, 34.003786317843449 ], [ -118.28117925102778, 34.003785369503952 ], [ -118.281284478081901, 34.003784312935565 ], [ -118.281491033239433, 34.003782238367414 ], [ -118.281578470811198, 34.003783408336339 ], [ -118.282708471283058, 34.003771492728617 ], [ -118.284445534573166, 34.003756265793037 ], [ -118.287150964588847, 34.003732495982746 ], [ -118.287251592532996, 34.003731569564394 ], [ -118.287779486721874, 34.003729281569449 ], [ -118.288977145932009, 34.003723672088626 ], [ -118.289655159418572, 34.003720672881819 ], [ -118.290023036026639, 34.003719102480026 ], [ -118.290964995302446, 34.003714774406596 ], [ -118.291557225469688, 34.003711971288212 ], [ -118.291685319039502, 34.003711376903453 ], [ -118.292174201825375, 34.00370910536077 ], [ -118.293724888868056, 34.003702250157495 ], [ -118.294335266373395, 34.003699389241397 ], [ -118.294797184136641, 34.003700666254325 ], [ -118.295887644010534, 34.003704180530988 ], [ -118.296950058263477, 34.003707410478881 ], [ -118.297818121959892, 34.003710028066799 ], [ -118.298015771950531, 34.003710622927834 ], [ -118.299089734099937, 34.003713805526445 ], [ -118.300181844000107, 34.003717276916525 ], [ -118.301254156640681, 34.003720444358251 ], [ -118.302346266716768, 34.003723896162967 ], [ -118.303448274939967, 34.003727313200045 ], [ -118.304014126170969, 34.003728980547905 ], [ -118.304546976406598, 34.003728668525255 ], [ -118.305688561959457, 34.003727843443606 ], [ -118.30674601275426, 34.003726877942121 ], [ -118.307808413815309, 34.003726234033422 ], [ -118.308339618134937, 34.0037269390102 ], [ -118.308920305136255, 34.003725454110153 ], [ -118.309533991795675, 34.003725255719075 ], [ -118.311335455013747, 34.00372440048924 ], [ -118.313287039757938, 34.003723128788664 ], [ -118.313828133143403, 34.003721379560282 ], [ -118.313892470489591, 34.003721212252245 ], [ -118.313928763351427, 34.003721117858234 ], [ -118.314907034708, 34.003721660706908 ], [ -118.315489371230271, 34.003720139896565 ], [ -118.316010669742312, 34.003718776107561 ], [ -118.316579808821828, 34.003717284589904 ], [ -118.317120892992506, 34.003713116244079 ], [ -118.317119105980836, 34.001499370548551 ], [ -118.317123579469225, 34.000067376053373 ], [ -118.317123775108243, 33.99999014784337 ], [ -118.317132857336404, 33.996419902878657 ], [ -118.31713759053298, 33.995056605572024 ], [ -118.318178450980554, 33.995059361520596 ], [ -118.31868156927554, 33.995062842740374 ], [ -118.319229208524391, 33.995062082312081 ], [ -118.319260547802855, 33.995061655925582 ], [ -118.31980985884762, 33.995066727642786 ], [ -118.320345920037667, 33.995057749247529 ], [ -118.321442783315405, 33.995039375933082 ], [ -118.322419261684018, 33.9950292144363 ], [ -118.32253967654556, 33.995028892667079 ], [ -118.323625045546493, 33.995024269538874 ], [ -118.324698867902711, 33.995019667716242 ], [ -118.325810628718401, 33.99501495391884 ], [ -118.326963626989098, 33.99501011816011 ], [ -118.328166110218064, 33.995005136830954 ], [ -118.329391684992885, 33.99499973701181 ], [ -118.329939318314061, 33.994997554065293 ], [ -118.330803623282634, 33.994985913937555 ], [ -118.33220234328256, 33.994966615006881 ], [ -118.332195022026426, 33.995615819241252 ], [ -118.332183028763282, 33.99632686234834 ], [ -118.331640300200178, 33.996328355009254 ], [ -118.331635689333339, 33.997246498777365 ], [ -118.331632192411476, 33.99761300535917 ], [ -118.331618056611077, 33.997792343091234 ], [ -118.331560478976911, 33.998248647270657 ], [ -118.331508374233408, 33.998420875263804 ], [ -118.331505358167419, 33.998908973443569 ], [ -118.331502905302557, 33.999955917470047 ], [ -118.331499319434627, 34.000716743504192 ], [ -118.331497361227974, 34.001055423827829 ], [ -118.331498426163861, 34.001324367942509 ], [ -118.331497457935967, 34.00149645639344 ], [ -118.331559235653174, 34.001683484829641 ], [ -118.331649419445597, 34.001961802515993 ], [ -118.331727924017471, 34.002206490024015 ], [ -118.331784604092448, 34.002355750156561 ], [ -118.331841204037332, 34.002484744095625 ], [ -118.331904394597188, 34.002611658988393 ], [ -118.331960883215999, 34.002712487587054 ], [ -118.332010706599846, 34.002796504737674 ], [ -118.332063851194803, 34.002886007554821 ], [ -118.332183294405624, 34.003053985466558 ], [ -118.332282734612846, 34.003169465458051 ], [ -118.332377226381325, 34.003285303381318 ], [ -118.332451772346374, 34.003363412158258 ], [ -118.332496969606694, 34.003408052214908 ], [ -118.332532925312819, 34.003443563583595 ], [ -118.332667016670456, 34.003561008685281 ], [ -118.332763041383856, 34.003646958174855 ], [ -118.332854084780649, 34.003725022122204 ], [ -118.33304101862602, 34.003855373419164 ], [ -118.333168408748406, 34.003946731762326 ], [ -118.333280906896704, 34.004026796160197 ], [ -118.333361995361969, 34.004090116551744 ], [ -118.333466253684122, 34.004172265336102 ], [ -118.333575525588657, 34.004270542969593 ], [ -118.33372953648184, 34.004418158344642 ], [ -118.333858765282585, 34.00455622545968 ], [ -118.334049419967513, 34.004791327207684 ], [ -118.334168869881054, 34.00495930317436 ], [ -118.334303249895839, 34.005147847550347 ], [ -118.334386190523858, 34.0052616541238 ], [ -118.334548787850423, 34.005492711937542 ], [ -118.334772740326528, 34.005802599549376 ], [ -118.334932011471707, 34.006026452944241 ], [ -118.335099665747165, 34.006283943288402 ], [ -118.335199331414955, 34.006454034988749 ], [ -118.335277475311472, 34.006605293930889 ], [ -118.335362338140854, 34.006786417174681 ], [ -118.335487372912468, 34.007111348978164 ], [ -118.335534176937401, 34.007263726220835 ], [ -118.335619350833554, 34.007522132102949 ], [ -118.335685310829987, 34.007925885579994 ], [ -118.335710843722438, 34.008121943360962 ], [ -118.33584259310463, 34.00806387169856 ], [ -118.336102790129729, 34.00794705016969 ], [ -118.336402513219156, 34.007813630736813 ], [ -118.336586955405352, 34.007730680610862 ], [ -118.336764647900097, 34.007610651968818 ], [ -118.336864989683207, 34.007537553562926 ], [ -118.337070198754603, 34.007286238062733 ], [ -118.337168709987523, 34.00716814734119 ], [ -118.337281992792086, 34.007031468081543 ], [ -118.337365737767215, 34.006934028343352 ], [ -118.337580580407817, 34.007026855015319 ], [ -118.337728455244687, 34.006877026225403 ], [ -118.337807355681861, 34.006805704443615 ], [ -118.337882956513667, 34.006734390945695 ], [ -118.337958587727002, 34.006670634842827 ], [ -118.338081909825561, 34.006569305469029 ], [ -118.338262852452615, 34.006437931475624 ], [ -118.338335266948306, 34.006394793131406 ], [ -118.338503130753779, 34.006293337558063 ], [ -118.338774874960905, 34.006178538768133 ], [ -118.339023536556496, 34.006067582516955 ], [ -118.339244302611533, 34.005993800326557 ], [ -118.339325182588667, 34.005959232781379 ], [ -118.339336529232654, 34.005954384005072 ], [ -118.339443586820835, 34.005911147590602 ], [ -118.339595103037325, 34.005847176116909 ], [ -118.339741707518755, 34.005792493221165 ], [ -118.33987183806417, 34.005743352265668 ] ] ] } }
]
}
