{
"type": "FeatureCollection",
"name": "district_boundary",
"crs": { "type": "name", "properties": { "name": "urn:ogc:def:crs:OGC:1.3:CRS84" } },
"features": [
{ "type": "Feature", "properties": { "dist_label": "11TH", "dist_num": "11" }, "geometry": { "type": "MultiPolygon", "coordinates": [ [ [ [ -87.706789401365256, 41.902831916107559 ], [ -87.70678880830036, 41.902805416784126 ], [ -87.706786078926243, 41.902683588850458 ], [ -87.706775558974371, 41.902376890541035 ], [ -87.706766373960605, 41.902159112510518 ], [ -87.706762668699227, 41.901995590843363 ], [ -87.70675898302521, 41.90187161298406 ], [ -87.706756420888638, 41.901779530388851 ], [ -87.706743187607117, 41.901374656051964 ], [ -87.706735720912988, 41.901150273401932 ], [ -87.706731088670324, 41.901006011196309 ], [ -87.706725527006469, 41.900832819648613 ], [ -87.706716212767574, 41.900541879261567 ], [ -87.706708220162611, 41.900254815721397 ], [ -87.706704024703868, 41.900136155227436 ], [ -87.706697602147813, 41.899954511023097 ], [ -87.706683768665144, 41.899509649242965 ], [ -87.706678571696827, 41.89931236467541 ], [ -87.706674456166326, 41.899195400811301 ], [ -87.706669545675524, 41.899055839495254 ], [ -87.706661468811902, 41.898799976659461 ], [ -87.706659035229933, 41.89872323473584 ], [ -87.706652990180132, 41.898532587325178 ], [ -87.706646380655087, 41.898310677132081 ], [ -87.706641099607069, 41.898133345426047 ], [ -87.706628130653556, 41.897759375487325 ], [ -87.706623850458953, 41.897635967835072 ], [ -87.706621577491731, 41.897557964490403 ], [ -87.706604277601286, 41.89696437181351 ], [ -87.706602452088148, 41.896901738781089 ], [ -87.706600732608635, 41.896845279013689 ], [ -87.706598029582338, 41.896756549302076 ], [ -87.706585935067139, 41.896359606521784 ], [ -87.706566565978605, 41.895865044316984 ], [ -87.706556332223911, 41.895553410646052 ], [ -87.706551027451582, 41.895391851793228 ], [ -87.706543476515392, 41.895133797570196 ], [ -87.706542291822942, 41.895078603877742 ], [ -87.706538044996776, 41.894946637747339 ], [ -87.706522133026894, 41.894440321423318 ], [ -87.706513775488432, 41.89415583502678 ], [ -87.706510228759043, 41.894035096367396 ], [ -87.706504259744989, 41.893819119041758 ], [ -87.706501221993165, 41.893724460579847 ], [ -87.706493308624829, 41.893477868300891 ], [ -87.706481924128497, 41.893098386723231 ], [ -87.70646880331239, 41.892629818722526 ], [ -87.706457458333247, 41.89227256579948 ], [ -87.706449633231983, 41.892021041025806 ], [ -87.706445854535175, 41.891896071216465 ], [ -87.706439254083364, 41.891677789108364 ], [ -87.706424144373358, 41.891209703545776 ], [ -87.706409532307887, 41.890871396577751 ], [ -87.706408301005638, 41.890843041692975 ], [ -87.706405457912211, 41.890777054648836 ], [ -87.706400266586996, 41.890399033772603 ], [ -87.706397660389285, 41.890307338783693 ], [ -87.706394473770843, 41.890195160545872 ], [ -87.706390299855556, 41.890070334394466 ], [ -87.706385607704647, 41.889929990764607 ], [ -87.706382823998396, 41.889827494281569 ], [ -87.706376966136034, 41.889611802870256 ], [ -87.706369653157779, 41.889293046949426 ], [ -87.706369598437206, 41.889291619575566 ], [ -87.706366744011575, 41.88921805881975 ], [ -87.706358418595713, 41.889003467595593 ], [ -87.706349007156888, 41.888655226595553 ], [ -87.706341851111134, 41.888403002167664 ], [ -87.706340780398506, 41.888365244995867 ], [ -87.706339310753606, 41.888313460227536 ], [ -87.706338000946644, 41.888272070703557 ], [ -87.706336060685544, 41.88821209653095 ], [ -87.706334890485039, 41.888175894595086 ], [ -87.706332880687114, 41.888110957419819 ], [ -87.706331701303114, 41.888072859366446 ], [ -87.706320490142673, 41.887710556855048 ], [ -87.706314398530054, 41.887520895642758 ], [ -87.706311594455201, 41.887433559855779 ], [ -87.706301151218071, 41.887021701334646 ], [ -87.706300240208677, 41.886992637899823 ], [ -87.706286174602312, 41.886544121089493 ], [ -87.70628201096234, 41.886419511021423 ], [ -87.706276429761246, 41.886252464579883 ], [ -87.706265985680574, 41.885927214267873 ], [ -87.706264688393048, 41.885888486231792 ], [ -87.706264676325517, 41.885888124199994 ], [ -87.706264138347052, 41.885872047533972 ], [ -87.706263423384968, 41.885847452588536 ], [ -87.706263394876672, 41.885846546694836 ], [ -87.706262973655555, 41.885833317477307 ], [ -87.706251749032688, 41.88550153184967 ], [ -87.706249501366457, 41.885397109694402 ], [ -87.706245814069874, 41.885225894215644 ], [ -87.706234662292474, 41.884875090094262 ], [ -87.706234103065228, 41.884857498005587 ], [ -87.706220603446923, 41.884397135627623 ], [ -87.706219281458999, 41.884352066317646 ], [ -87.706217973273596, 41.884307444600537 ], [ -87.706208789012067, 41.883994239512013 ], [ -87.706200285168862, 41.883704236330253 ], [ -87.706196880201105, 41.883590416394547 ], [ -87.706192225580509, 41.88349189724233 ], [ -87.706183481597776, 41.883230404754443 ], [ -87.706177905022798, 41.883063661687125 ], [ -87.706173530796974, 41.882932655199241 ], [ -87.70617046561982, 41.882794319937865 ], [ -87.706165988924695, 41.882592355178446 ], [ -87.706159986552962, 41.88230099798978 ], [ -87.706159315809543, 41.882268442485184 ], [ -87.706152878586678, 41.882017857540518 ], [ -87.706148056613898, 41.881881642815308 ], [ -87.706144017220836, 41.881767533976003 ], [ -87.706135242839821, 41.881439219719077 ], [ -87.706134471026402, 41.881410345133467 ], [ -87.706131131303877, 41.881275200032057 ], [ -87.706126608520435, 41.881114445394886 ], [ -87.706122737786842, 41.880972742888964 ], [ -87.705870401472268, 41.880975559106311 ], [ -87.705388017091423, 41.88098155221595 ], [ -87.70525531610113, 41.880983200786694 ], [ -87.704609307445111, 41.88099124692522 ], [ -87.704116459093058, 41.880996039365378 ], [ -87.703660833266312, 41.881000954616617 ], [ -87.703418163410603, 41.881003572698589 ], [ -87.703216281517612, 41.881006004426723 ], [ -87.702965735453148, 41.881007695031819 ], [ -87.702781066995684, 41.881008940219523 ], [ -87.70251237061801, 41.881012756789687 ], [ -87.702400725827104, 41.881014342981743 ], [ -87.702225944578245, 41.881016839940571 ], [ -87.70205082294909, 41.881018791812998 ], [ -87.701765846746355, 41.881021967059844 ], [ -87.701506940420657, 41.881024056022135 ], [ -87.701207753215726, 41.881025585075207 ], [ -87.700971844946736, 41.881026791045365 ], [ -87.700684201321039, 41.881030941994027 ], [ -87.700355204323955, 41.881035661021023 ], [ -87.700068662038447, 41.881039788575343 ], [ -87.699700391765688, 41.881042559661587 ], [ -87.699422455885838, 41.881045389780084 ], [ -87.699217235589941, 41.881047549341496 ], [ -87.698912748775115, 41.88105039633971 ], [ -87.698727601931395, 41.881051743095902 ], [ -87.698451898073714, 41.881053749428482 ], [ -87.698215092380366, 41.881056391677625 ], [ -87.69792841382511, 41.881059416467657 ], [ -87.697701850248492, 41.881061161730294 ], [ -87.697515853233014, 41.881062593622062 ], [ -87.697268683339843, 41.881066027322184 ], [ -87.697130743843218, 41.881067417743203 ], [ -87.697078081917851, 41.881067798536002 ], [ -87.69661086727001, 41.881072261492044 ], [ -87.696288776349974, 41.881076658775484 ], [ -87.696016228668583, 41.881080379298318 ], [ -87.695755676250513, 41.881081732241711 ], [ -87.695351864562539, 41.881083934616299 ], [ -87.694828967190233, 41.881086023607843 ], [ -87.69433133863005, 41.881087508985104 ], [ -87.693930854988778, 41.8810903784914 ], [ -87.693654513808383, 41.881092358093532 ], [ -87.693286085012389, 41.881096233139985 ], [ -87.692931821471674, 41.881099549469155 ], [ -87.692894743615355, 41.881099896420352 ], [ -87.692478402004497, 41.881102952473626 ], [ -87.692162269869897, 41.881105978591826 ], [ -87.691728733610304, 41.881110127957093 ], [ -87.69163260992832, 41.881111559945332 ], [ -87.691530109531527, 41.881113085812999 ], [ -87.691472769530634, 41.881113940293623 ], [ -87.69135628568894, 41.881115675103452 ], [ -87.691076736153022, 41.881117517983725 ], [ -87.690865323356419, 41.881118912217559 ], [ -87.690544638441978, 41.881122166851064 ], [ -87.690392102146006, 41.881123624170449 ], [ -87.690070040734923, 41.881126699560156 ], [ -87.689487911554281, 41.881132383188167 ], [ -87.68886327621982, 41.881127796348203 ], [ -87.688791722938063, 41.881127270531003 ], [ -87.688488816948777, 41.881134929113138 ], [ -87.688145113013306, 41.881143618195438 ], [ -87.687949585392062, 41.881145811181071 ], [ -87.687938861831483, 41.881145916531032 ], [ -87.68755045143692, 41.881150264130518 ], [ -87.687053773379532, 41.881155757698011 ], [ -87.68643116160645, 41.881161733676763 ], [ -87.686430984470007, 41.881153373911552 ], [ -87.686428157993873, 41.881020210123886 ], [ -87.68642183704587, 41.88084588731185 ], [ -87.686420459717198, 41.880711311807246 ], [ -87.686416606491761, 41.880425165245683 ], [ -87.68641299596122, 41.880304508112083 ], [ -87.686411600433274, 41.880257848199513 ], [ -87.686405044190764, 41.880038792340379 ], [ -87.686398194402386, 41.879834981235696 ], [ -87.686395751684742, 41.879762311762285 ], [ -87.686385900278893, 41.879413929373818 ], [ -87.686384445437824, 41.879357744387811 ], [ -87.686383064493242, 41.879304390439543 ], [ -87.686378025917392, 41.879109739722544 ], [ -87.686371206817711, 41.878846527814275 ], [ -87.686364836102584, 41.878588914076964 ], [ -87.686358478377727, 41.878331800059911 ], [ -87.686354961408384, 41.878192701723023 ], [ -87.686348646518994, 41.87794508028135 ], [ -87.686343662090778, 41.877791182859383 ], [ -87.686343080190198, 41.877550167955405 ], [ -87.686342556218037, 41.877333024138515 ], [ -87.686334778064918, 41.876997468781397 ], [ -87.686330178679228, 41.87686368801765 ], [ -87.686319390647441, 41.876742825646716 ], [ -87.686308370631053, 41.876630386464008 ], [ -87.686280538877128, 41.87633909236677 ], [ -87.686269498201526, 41.876083619265984 ], [ -87.686260636783899, 41.875878548871135 ], [ -87.686256275865048, 41.875777632827585 ], [ -87.686246125296393, 41.87554273670068 ], [ -87.686251242683426, 41.875308785473287 ], [ -87.686253362131595, 41.875211888181312 ], [ -87.686258108423658, 41.874994899109744 ], [ -87.686262887993905, 41.87477639045224 ], [ -87.68625151425708, 41.874469766100198 ], [ -87.686247963327602, 41.874439394628467 ], [ -87.686246725262976, 41.874414882125166 ], [ -87.686244628399777, 41.87437340415665 ], [ -87.68623708887128, 41.874174404018063 ], [ -87.68623479303109, 41.873891114504126 ], [ -87.686232999322868, 41.873669822734847 ], [ -87.686227840410837, 41.873496961173039 ], [ -87.686225735176038, 41.873426695629064 ], [ -87.686220918207113, 41.873265911371213 ], [ -87.686213653155676, 41.87300019467601 ], [ -87.68620997499913, 41.872865655556566 ], [ -87.686199454868458, 41.87254718109196 ], [ -87.686192293274019, 41.872310860186936 ], [ -87.686188030859157, 41.872070879479807 ], [ -87.686185105141519, 41.871905933756516 ], [ -87.686179217900133, 41.871681585555102 ], [ -87.6861725186032, 41.871439340255158 ], [ -87.686169420838667, 41.871328591464703 ], [ -87.686164710700083, 41.871160233205174 ], [ -87.686161994325332, 41.871063153681774 ], [ -87.686154582365972, 41.870815141275123 ], [ -87.686148000087044, 41.870572292518972 ], [ -87.686142438599646, 41.870410240804866 ], [ -87.686140576588485, 41.870249005904022 ], [ -87.686139459291823, 41.870152346876765 ], [ -87.686130569918561, 41.869901664660588 ], [ -87.686123759560672, 41.86969959381225 ], [ -87.686117711003021, 41.869520277986204 ], [ -87.68611198427331, 41.869339042648924 ], [ -87.686107943140968, 41.869211137819896 ], [ -87.686102411678007, 41.868976390802018 ], [ -87.686099484965254, 41.8688521700915 ], [ -87.686094958259829, 41.868667566134427 ], [ -87.686091712013351, 41.868534423974289 ], [ -87.686087910054894, 41.868432014644334 ], [ -87.686084292870191, 41.868334573449992 ], [ -87.686076225471567, 41.868086144904574 ], [ -87.686069356469716, 41.867879052364188 ], [ -87.686064326895931, 41.867693321015025 ], [ -87.686063076725404, 41.867577726060205 ], [ -87.686062214475569, 41.867521825170236 ], [ -87.686060138733652, 41.867373317169573 ], [ -87.686052296041424, 41.867063941026835 ], [ -87.686049791295773, 41.86696513402061 ], [ -87.68603841452105, 41.866612543946289 ], [ -87.686562483316905, 41.866605644015053 ], [ -87.68660265038892, 41.866605335427579 ], [ -87.687186839025685, 41.866600842887443 ], [ -87.687671681294873, 41.866596517289899 ], [ -87.688095982334502, 41.86659212950665 ], [ -87.688145401994191, 41.866591742696727 ], [ -87.688473957177521, 41.866587255015595 ], [ -87.688771888581101, 41.866583185981206 ], [ -87.689177588674269, 41.866581172118245 ], [ -87.68951683576455, 41.866579488282049 ], [ -87.690055147847346, 41.866573585988128 ], [ -87.69052782349678, 41.866566819438951 ], [ -87.690911482195702, 41.866562654800617 ], [ -87.690971097079668, 41.866561982555808 ], [ -87.691171844511871, 41.866559719896614 ], [ -87.69150030813546, 41.866556890452522 ], [ -87.691840225154351, 41.866554316690809 ], [ -87.692187169568584, 41.866549890501297 ], [ -87.692444674689469, 41.866546604568704 ], [ -87.69280911495116, 41.866544054947063 ], [ -87.69306213000219, 41.866541569088071 ], [ -87.693427621323494, 41.866537012031294 ], [ -87.693717724505078, 41.866533394370684 ], [ -87.694033966635416, 41.866530242904837 ], [ -87.694374226383772, 41.866526373407744 ], [ -87.694701065112923, 41.86652375168844 ], [ -87.694905581058066, 41.866522111241046 ], [ -87.69521812447006, 41.866517948296071 ], [ -87.695578569157959, 41.866514790567948 ], [ -87.69590748856254, 41.866510666257483 ], [ -87.696248998819485, 41.866506382116881 ], [ -87.69668453509064, 41.866501799893818 ], [ -87.696958609269672, 41.866497006559023 ], [ -87.697128714096934, 41.866495702622117 ], [ -87.697275247481812, 41.866494578538607 ], [ -87.697635618475516, 41.866487775682558 ], [ -87.697877441151959, 41.866484668067173 ], [ -87.698111175870579, 41.866482750465053 ], [ -87.69834707058375, 41.866481529501286 ], [ -87.698518712915643, 41.866480640762703 ], [ -87.698864297655888, 41.866476485800987 ], [ -87.699106702419996, 41.866474064876016 ], [ -87.699433986898484, 41.866471645581385 ], [ -87.699573769292073, 41.866470122010803 ], [ -87.700050613391412, 41.866464921258554 ], [ -87.700363856601982, 41.866460583374099 ], [ -87.700787838250506, 41.866455682331065 ], [ -87.701008575258712, 41.866453129953179 ], [ -87.701429265456255, 41.866450011874619 ], [ -87.701734758154629, 41.866445985044699 ], [ -87.702015242312925, 41.866442647392518 ], [ -87.702266352517938, 41.866439658975999 ], [ -87.702540931597412, 41.866435760901041 ], [ -87.702792230470479, 41.866432201565949 ], [ -87.703199301080943, 41.866430327495245 ], [ -87.703395754719509, 41.866428817661415 ], [ -87.703775950476299, 41.866425605666088 ], [ -87.704049740452675, 41.86642342922368 ], [ -87.704445980421525, 41.866421649868983 ], [ -87.704531585286674, 41.866421265960184 ], [ -87.704973954711633, 41.866416195331155 ], [ -87.705279110557512, 41.86641270470745 ], [ -87.7056691997754, 41.866405307123443 ], [ -87.705875552440347, 41.866401392823626 ], [ -87.706273920745573, 41.86639824480995 ], [ -87.706454489140782, 41.866396882513897 ], [ -87.706544075497007, 41.866396179373062 ], [ -87.706882936684067, 41.866392429901389 ], [ -87.707173258689664, 41.866389210768475 ], [ -87.707488582386247, 41.866385990210063 ], [ -87.707780040439033, 41.866382995342754 ], [ -87.708102124870791, 41.86637903206524 ], [ -87.708345856005892, 41.86637603161995 ], [ -87.708669335921357, 41.866372248125465 ], [ -87.708945045428663, 41.866369082725981 ], [ -87.709323305915262, 41.866364784892625 ], [ -87.709577351112657, 41.866361898178553 ], [ -87.709876894251252, 41.86635795335151 ], [ -87.71011343086073, 41.866354819194605 ], [ -87.710542778777594, 41.866349134286729 ], [ -87.710955847078282, 41.866343662998062 ], [ -87.711278552779959, 41.866340059712428 ], [ -87.711703919087853, 41.86633531048377 ], [ -87.711970374780293, 41.866332334371847 ], [ -87.71229396211227, 41.866328733002547 ], [ -87.712553074567694, 41.866325825736737 ], [ -87.712981893191142, 41.86632015587886 ], [ -87.71326473733528, 41.866316415389811 ], [ -87.713619650046596, 41.86631190894407 ], [ -87.71398939538409, 41.866307235506248 ], [ -87.714280271755968, 41.86630353493964 ], [ -87.714602578223108, 41.866299453774431 ], [ -87.714972470399616, 41.866294777138947 ], [ -87.715420788604078, 41.866289809093097 ], [ -87.715614208758552, 41.866287665090624 ], [ -87.715633816910909, 41.866287398707506 ], [ -87.716635150328813, 41.866285078432675 ], [ -87.717853881040597, 41.866269256187088 ], [ -87.718707858628846, 41.866258155503864 ], [ -87.718793705101021, 41.866257039281976 ], [ -87.719527149628831, 41.866247499620265 ], [ -87.720123200741284, 41.866239745378664 ], [ -87.720776196463675, 41.866231248347383 ], [ -87.720902835732019, 41.866229599964768 ], [ -87.72151587333299, 41.866221617601767 ], [ -87.72273533950883, 41.866205727637883 ], [ -87.723763500973277, 41.866192321735738 ], [ -87.723947421855371, 41.866189682909514 ], [ -87.724813121232259, 41.866177260232895 ], [ -87.725170489597204, 41.866172129625177 ], [ -87.726388688843016, 41.866154633839415 ], [ -87.727618785945054, 41.866136952972795 ], [ -87.728835022963523, 41.866119459579288 ], [ -87.730063972233239, 41.866101768980016 ], [ -87.731287668656663, 41.866084142110822 ], [ -87.732495946175973, 41.866066724021778 ], [ -87.733000594410626, 41.866059444823115 ], [ -87.733564909371566, 41.866051635964482 ], [ -87.733732596281499, 41.866049541311 ], [ -87.733992590395914, 41.866046294027726 ], [ -87.734000301285576, 41.866046197397701 ], [ -87.734830118461744, 41.866034855258036 ], [ -87.734964745614462, 41.866032896205446 ], [ -87.735302201359858, 41.866027984188818 ], [ -87.737149479504438, 41.866000760747134 ], [ -87.737403840889982, 41.8659967499582 ], [ -87.737607834054515, 41.865993534301545 ], [ -87.738731765336496, 41.865977403885481 ], [ -87.739107023111032, 41.865971740877576 ], [ -87.739416849912175, 41.865967063633512 ], [ -87.739730286136563, 41.86596269949132 ], [ -87.739931985538888, 41.865959891014498 ], [ -87.739969018628742, 41.865959375570561 ], [ -87.739985680061139, 41.865959143866618 ], [ -87.740069114835933, 41.865957981304497 ], [ -87.740166769218831, 41.865956621952435 ], [ -87.740391408645038, 41.865953492752674 ], [ -87.742126866660499, 41.865929124108 ], [ -87.74230586566047, 41.865926495373515 ], [ -87.742641576464067, 41.865921564471485 ], [ -87.743172040638399, 41.865913626086311 ], [ -87.744754112001402, 41.865896928668228 ], [ -87.744764030526312, 41.866204526469183 ], [ -87.744784558600131, 41.866832407866227 ], [ -87.744801397233445, 41.867495248638448 ], [ -87.744803764590941, 41.867588439230147 ], [ -87.744815150539765, 41.867893823325311 ], [ -87.744815364822983, 41.867908807990304 ], [ -87.744820663244241, 41.868059604129897 ], [ -87.744824560830253, 41.868179670598359 ], [ -87.744824728968737, 41.868184845753618 ], [ -87.744829472438326, 41.868284129436645 ], [ -87.744830645405443, 41.868327887659987 ], [ -87.744835711712511, 41.868516737461441 ], [ -87.74484088148111, 41.868709410671457 ], [ -87.74484454846133, 41.868861982881306 ], [ -87.744853318340319, 41.869046688470192 ], [ -87.744860930375808, 41.869356580961288 ], [ -87.744865429762513, 41.869539755654294 ], [ -87.744866791905636, 41.869595196855407 ], [ -87.744874769669408, 41.869714064238721 ], [ -87.744881771700292, 41.869875351767675 ], [ -87.744886599204932, 41.869996097361948 ], [ -87.744886609911347, 41.869996371156198 ], [ -87.744890362387423, 41.870123614368183 ], [ -87.744894597785233, 41.870270041978785 ], [ -87.74490003420334, 41.870457968934282 ], [ -87.744902182613444, 41.87053223946527 ], [ -87.744906872280623, 41.870657373499157 ], [ -87.744912356318551, 41.870788110839349 ], [ -87.744919733326142, 41.87091010294958 ], [ -87.744923864875148, 41.870978428672203 ], [ -87.744925506400435, 41.871184147741339 ], [ -87.744926802279636, 41.871346646668592 ], [ -87.744927553907019, 41.871440830982245 ], [ -87.744930419646721, 41.871799919959116 ], [ -87.74493117481579, 41.871894629190656 ], [ -87.744932592742344, 41.872072325576518 ], [ -87.744933634720738, 41.872203019474689 ], [ -87.744936645357456, 41.872281658312247 ], [ -87.744943409676821, 41.872458395312862 ], [ -87.744967729970753, 41.87264908038734 ], [ -87.74497287638566, 41.87269554020564 ], [ -87.744983463231165, 41.872791093908837 ], [ -87.74499251120352, 41.87295763451737 ], [ -87.744998442564636, 41.873140503102711 ], [ -87.745003674384733, 41.873301793192638 ], [ -87.745011684570287, 41.873469344048068 ], [ -87.745017561754509, 41.873637239626525 ], [ -87.745024495837484, 41.873822045485682 ], [ -87.745027378108958, 41.873920085165437 ], [ -87.7450346821458, 41.874091210340794 ], [ -87.745040494856809, 41.874227399092867 ], [ -87.745042576607531, 41.874376751501295 ], [ -87.745048403087395, 41.874550191142774 ], [ -87.745054310575071, 41.874682878016785 ], [ -87.745057751866796, 41.874755701002996 ], [ -87.745062366843953, 41.874853310187007 ], [ -87.745066780311561, 41.875000222876473 ], [ -87.745073843940787, 41.875235424319079 ], [ -87.745078991254559, 41.875358803993514 ], [ -87.745087454626088, 41.875561044656848 ], [ -87.745094337492915, 41.875739510829405 ], [ -87.745101458521688, 41.875902659802392 ], [ -87.745112665326303, 41.876159392489974 ], [ -87.745123551552567, 41.876328000596338 ], [ -87.745123692796966, 41.876330196378042 ], [ -87.74513334015073, 41.876503462811961 ], [ -87.745142637116658, 41.876674861903261 ], [ -87.745145943730918, 41.876807982922195 ], [ -87.74515076377304, 41.877002018014387 ], [ -87.745156396647559, 41.877160500068562 ], [ -87.745159228070733, 41.877239549347543 ], [ -87.74516344233669, 41.877357244008977 ], [ -87.745166215748299, 41.877435002846966 ], [ -87.745171796162083, 41.877591454285842 ], [ -87.745177618557335, 41.877693405655336 ], [ -87.745187238738808, 41.877861649788862 ], [ -87.745190066713178, 41.877957630930418 ], [ -87.745191939909958, 41.878038842425269 ], [ -87.745195715168677, 41.878202583760128 ], [ -87.745200718749572, 41.878373741131945 ], [ -87.745203791842215, 41.878479135750744 ], [ -87.745207792375425, 41.878596637467851 ], [ -87.745209226371628, 41.878638769125821 ], [ -87.745210474591786, 41.878675411399719 ], [ -87.745216354655682, 41.87883507497348 ], [ -87.74522104884106, 41.878963913783416 ], [ -87.745226694054139, 41.879117127020677 ], [ -87.745231820225541, 41.879249837634823 ], [ -87.745236902636719, 41.879381395642334 ], [ -87.745243044896299, 41.879500390271332 ], [ -87.74525087187908, 41.879652049894517 ], [ -87.745254558500321, 41.879774627047169 ], [ -87.745258372357597, 41.879902522244521 ], [ -87.745260091881335, 41.879960166472458 ], [ -87.74526391687877, 41.880087629571868 ], [ -87.745270781625251, 41.880316123038185 ], [ -87.74527756066216, 41.880497998115629 ], [ -87.745290115243463, 41.880834803159871 ], [ -87.745295549540032, 41.880983075066816 ], [ -87.745302618445336, 41.881173419330565 ], [ -87.745303353791243, 41.881193215376577 ], [ -87.745322334145357, 41.881401984932893 ], [ -87.745333273683443, 41.881617738655251 ], [ -87.745337174245236, 41.881693884370961 ], [ -87.745340571139977, 41.881816296094229 ], [ -87.745345813686427, 41.882005208495642 ], [ -87.745352936992589, 41.882401871868879 ], [ -87.745354820099379, 41.882475853626609 ], [ -87.745361522560501, 41.882739183987212 ], [ -87.745372371820395, 41.883037758818602 ], [ -87.745375714426061, 41.883130094301336 ], [ -87.745381690231625, 41.88329516214008 ], [ -87.745394724730929, 41.883651871442126 ], [ -87.745399956447926, 41.883793363599587 ], [ -87.745408202375074, 41.88401637644801 ], [ -87.745419444689972, 41.884316270392183 ], [ -87.745423261270048, 41.884452064198101 ], [ -87.745426450210829, 41.884565510985517 ], [ -87.745441669828068, 41.884926787184924 ], [ -87.745446205647468, 41.885034466960803 ], [ -87.745452914637085, 41.88528005697804 ], [ -87.745454737834379, 41.885357316531554 ], [ -87.74545812442777, 41.885500858208225 ], [ -87.745461064418407, 41.885596784905765 ], [ -87.745468648194546, 41.885742625032428 ], [ -87.745475613262983, 41.885876580221137 ], [ -87.745477531525097, 41.885952797713543 ], [ -87.745482558929325, 41.886152494930144 ], [ -87.745483689951186, 41.886183811891549 ], [ -87.745492107380514, 41.886416814784766 ], [ -87.745496553648081, 41.886566880336474 ], [ -87.745498296651007, 41.886625684265169 ], [ -87.745499201025154, 41.886656227626844 ], [ -87.745502624820759, 41.886771809360383 ], [ -87.745512001728272, 41.886962856717957 ], [ -87.745518285351864, 41.887084815893452 ], [ -87.745530396467998, 41.88731986791656 ], [ -87.7455383556171, 41.887548998753616 ], [ -87.745541564602419, 41.887641371278157 ], [ -87.745548000436386, 41.887826644063942 ], [ -87.74555118365258, 41.887918274613583 ], [ -87.745555444173164, 41.888040909405071 ], [ -87.745566394233961, 41.888240581975424 ], [ -87.74557548245339, 41.888479597974921 ], [ -87.745576698990064, 41.888510668652863 ], [ -87.745581690903677, 41.888685887129363 ], [ -87.74558472945418, 41.888792516628278 ], [ -87.745586831804616, 41.888843542504411 ], [ -87.745593419305763, 41.889022419120565 ], [ -87.745598085696102, 41.889150351740952 ], [ -87.745605126708725, 41.889303818543347 ], [ -87.745611625952989, 41.889444082679567 ], [ -87.745615961769516, 41.889569050567836 ], [ -87.745620079813165, 41.889687787970523 ], [ -87.745625730730623, 41.889852663909252 ], [ -87.745630382998399, 41.889954141777217 ], [ -87.745633849712846, 41.890038133420518 ], [ -87.74563885751806, 41.890159454819624 ], [ -87.745643326901089, 41.890312963317399 ], [ -87.745648509212742, 41.890479940097123 ], [ -87.745652457318599, 41.890607110909812 ], [ -87.745661287285174, 41.890809681501842 ], [ -87.745663336913481, 41.890886585660056 ], [ -87.745664819031504, 41.890936401903872 ], [ -87.745668699823568, 41.891066855026992 ], [ -87.745674664130775, 41.891245535735216 ], [ -87.745679302405719, 41.891381554144672 ], [ -87.745685490467736, 41.891563045888169 ], [ -87.745690996642992, 41.89170363350707 ], [ -87.74569587203446, 41.891844822863149 ], [ -87.745699771327438, 41.891960375430898 ], [ -87.745706473901947, 41.892126765742717 ], [ -87.745713374702632, 41.892269418597841 ], [ -87.745718206898246, 41.892369307325929 ], [ -87.745721579659332, 41.892458182793725 ], [ -87.745727571409546, 41.892637961980604 ], [ -87.745732154105752, 41.892791113620248 ], [ -87.745735220796931, 41.892893270203892 ], [ -87.745741327897164, 41.893060481262083 ], [ -87.745746005385612, 41.893162402119572 ], [ -87.74575237912569, 41.893301317677675 ], [ -87.745755706309268, 41.893411214077076 ], [ -87.745759505157494, 41.893517627629784 ], [ -87.745767436342106, 41.893762317718441 ], [ -87.745771013297528, 41.893877045735167 ], [ -87.74577600045113, 41.894053529868259 ], [ -87.745780026643999, 41.894196027527634 ], [ -87.745783461916474, 41.894298076201473 ], [ -87.745786065503296, 41.89437465356211 ], [ -87.745792864606386, 41.89455460071715 ], [ -87.745799807767824, 41.894758808190836 ], [ -87.745807210261688, 41.895004153726298 ], [ -87.745814062863019, 41.895231275283685 ], [ -87.745816910417801, 41.895341443821074 ], [ -87.745820978818102, 41.895504198427069 ], [ -87.745825187565231, 41.895672551177775 ], [ -87.74583068407641, 41.895951394807057 ], [ -87.745833336170492, 41.896085930927462 ], [ -87.745841581148596, 41.896412016867593 ], [ -87.745846761146041, 41.896616928344237 ], [ -87.745853567737072, 41.896859867754344 ], [ -87.745852583343492, 41.897015668354122 ], [ -87.74586092548742, 41.897322353292097 ], [ -87.745864039582457, 41.897436858299415 ], [ -87.745864472504692, 41.897766207508873 ], [ -87.745874403654568, 41.898017346044867 ], [ -87.745878716889123, 41.898226123575846 ], [ -87.745882189675228, 41.898394197850727 ], [ -87.745890528002718, 41.898686737503901 ], [ -87.745897142845635, 41.898918808718555 ], [ -87.745907333617467, 41.899410024934085 ], [ -87.7459119531824, 41.899595394304896 ], [ -87.745916628937579, 41.899782520476812 ], [ -87.745924078439728, 41.900236236958619 ], [ -87.745929549597449, 41.900516067955131 ], [ -87.745934432182281, 41.900765845332309 ], [ -87.745941786057458, 41.901161767555536 ], [ -87.74595015081222, 41.901435164207193 ], [ -87.74595594781718, 41.901624628794536 ], [ -87.745975915610813, 41.902195394783298 ], [ -87.745975578507256, 41.902202857801818 ], [ -87.745978356755515, 41.902352331862815 ], [ -87.745701000324715, 41.902355816144478 ], [ -87.74540206775977, 41.902363094959831 ], [ -87.744521097630638, 41.902381468580451 ], [ -87.743836945757707, 41.902392562913796 ], [ -87.743619958247422, 41.90239608099759 ], [ -87.742940591334474, 41.902405515431234 ], [ -87.742836108043761, 41.902406914806406 ], [ -87.742447311453375, 41.902412466926187 ], [ -87.742341459407754, 41.90241395965883 ], [ -87.742235496442746, 41.902415589483745 ], [ -87.741739895083995, 41.902423211088831 ], [ -87.741713402217272, 41.902423681419059 ], [ -87.741418790271723, 41.90242891126826 ], [ -87.741337696581866, 41.902429962566671 ], [ -87.741128264183018, 41.902432679406637 ], [ -87.740649713150432, 41.902438885195153 ], [ -87.740088938947324, 41.90244641725684 ], [ -87.739886836248033, 41.902449784614163 ], [ -87.739716805868724, 41.902452617017836 ], [ -87.73938122533734, 41.902458456274097 ], [ -87.738988882928126, 41.902465262234394 ], [ -87.738599926481854, 41.902471225375102 ], [ -87.737688247580124, 41.902485197406527 ], [ -87.737328605808699, 41.902491124636903 ], [ -87.736968007788917, 41.902497101619822 ], [ -87.73667964022269, 41.90250183225313 ], [ -87.736409900054639, 41.902506276240743 ], [ -87.736145862840587, 41.902512654440976 ], [ -87.735812583481888, 41.902520704689067 ], [ -87.735321230979892, 41.90252874035874 ], [ -87.734748831490933, 41.902538079115182 ], [ -87.733873513867465, 41.902552394048662 ], [ -87.733683278573309, 41.902554271066961 ], [ -87.733651290288805, 41.902554586594306 ], [ -87.733563637491571, 41.902555275837429 ], [ -87.732614198247759, 41.90256886449211 ], [ -87.731926107940268, 41.902579779843606 ], [ -87.731338426028074, 41.902589104433893 ], [ -87.731225079791244, 41.902592254683434 ], [ -87.731095037422804, 41.902595868301958 ], [ -87.730601448063908, 41.902603281344255 ], [ -87.730500562943803, 41.902604796434325 ], [ -87.730113295982264, 41.902610611880931 ], [ -87.729989676220043, 41.90261176045442 ], [ -87.729835931699895, 41.902613188078341 ], [ -87.729374106108722, 41.90262182966552 ], [ -87.729219980216214, 41.902624713021446 ], [ -87.728901845386758, 41.902630668379402 ], [ -87.728763800512766, 41.902633008227738 ], [ -87.72864738587019, 41.902634981983624 ], [ -87.728148906904309, 41.902642866555496 ], [ -87.72803806358398, 41.90264461418424 ], [ -87.72765101508314, 41.902650724137409 ], [ -87.727529556479979, 41.902652471129372 ], [ -87.727416326764128, 41.902654096621966 ], [ -87.726910736534322, 41.902660373530225 ], [ -87.726600298195464, 41.902664222100924 ], [ -87.726302934155783, 41.902671453163606 ], [ -87.726106186965055, 41.902676237238715 ], [ -87.725493648303569, 41.902680296458719 ], [ -87.725216730819483, 41.902682095818726 ], [ -87.725081947461121, 41.902682978286713 ], [ -87.7247880200688, 41.902684901728506 ], [ -87.724466577375566, 41.902687071022484 ], [ -87.724022730240421, 41.902690063918357 ], [ -87.723864897634272, 41.902691466382713 ], [ -87.723550917447469, 41.902694255253323 ], [ -87.722853982915368, 41.902700020214468 ], [ -87.722645386855902, 41.902702319750787 ], [ -87.722449316338171, 41.902704481165486 ], [ -87.721596252188178, 41.902711493011999 ], [ -87.721430829940047, 41.902712832762859 ], [ -87.721148614410197, 41.90271511809172 ], [ -87.720819711172453, 41.90271781636784 ], [ -87.720354034731272, 41.902721636586364 ], [ -87.720215241440116, 41.90272291413693 ], [ -87.720022041527116, 41.902724693278429 ], [ -87.719707826755325, 41.9027277900218 ], [ -87.719640637132983, 41.902728508691204 ], [ -87.719160361739597, 41.902733644235433 ], [ -87.718996484138884, 41.902734381029092 ], [ -87.718770010540112, 41.902735398475492 ], [ -87.718364357300345, 41.902739263458727 ], [ -87.717781277746539, 41.902745009548433 ], [ -87.717262088231905, 41.902750122976208 ], [ -87.717161433460589, 41.902750568785777 ], [ -87.716732804251848, 41.902752468134977 ], [ -87.71656238879504, 41.902754299855779 ], [ -87.716358188683955, 41.902756493647011 ], [ -87.715564208120469, 41.902761774817066 ], [ -87.715282360777579, 41.902764341203799 ], [ -87.715159289838581, 41.902765633390985 ], [ -87.714737697875506, 41.902768741688455 ], [ -87.714591527017205, 41.902769819706528 ], [ -87.714492068520201, 41.902770552278263 ], [ -87.714261134967131, 41.902772254345138 ], [ -87.714071005607167, 41.90277365555901 ], [ -87.713024759601211, 41.902780247826705 ], [ -87.712128353826287, 41.902782810914275 ], [ -87.711674996900612, 41.902787762741241 ], [ -87.71136556572344, 41.902791140816838 ], [ -87.710753486443764, 41.902789278868262 ], [ -87.710620013295525, 41.902791095000346 ], [ -87.71024450684385, 41.902796204954484 ], [ -87.709603943609423, 41.902803457632409 ], [ -87.709447806704617, 41.902805306815914 ], [ -87.709232923684311, 41.902807852162866 ], [ -87.706789401365256, 41.902831916107559 ] ] ] ] } }
]
}
