{
"type": "FeatureCollection",
"name": "division_boundary",
"crs": { "type": "name", "properties": { "name": "urn:ogc:def:crs:OGC:1.3:CRS84" } },
"features": [
{ "type": "Feature", "properties": { "APREC": "NORTH HOLLYWOOD", "OBJECTID": 205, "REPDIST": 1501, "PREC": 15, "BUREAU": "VALLEY BUREAU", "BASICCAR": "15A21", "TOOLTIP": "Bureau: VALLEY BUREAU\\nDistrict: 1501\\nDivision: NORTH HOLLYWOOD" }, "geometry": { "type": "Polygon", "coordinates": [ [ [ -118.375349798946658, 34.123564582195634 ], [ -118.375445377988569, 34.123511045124118 ], [ -118.375537626147832, 34.123451335591987 ], [ -118.375573847457105, 34.123423743323997 ], [ -118.375631447951065, 34.123374445935532 ], [ -118.375661059525541, 34.123346531599552 ], [ -118.375708760073891, 34.123300012825503 ], [ -118.375738345350968, 34.123266259303399 ], [ -118.375764620367406, 34.123231142124567 ], [ -118.3757859361844, 34.123195353388567 ], [ -118.375803940204491, 34.123157857520042 ], [ -118.375825117008986, 34.123091155538731 ], [ -118.37583319184094, 34.123049912202504 ], [ -118.375842728743024, 34.122966414734748 ], [ -118.37584407345976, 34.122898056992909 ], [ -118.375837280056047, 34.122856859890582 ], [ -118.375822167869302, 34.122802636216591 ], [ -118.375797094166444, 34.122737451986893 ], [ -118.375778749011602, 34.12269903868026 ], [ -118.375710449651805, 34.122573191934336 ], [ -118.375625389580307, 34.122393812645974 ], [ -118.375608098131053, 34.122348860804927 ], [ -118.375600316153523, 34.122328628376259 ], [ -118.375590225065366, 34.12228881545002 ], [ -118.375586797586166, 34.122261347283626 ], [ -118.375586671044303, 34.12223318188903 ], [ -118.37559144034789, 34.122191605356797 ], [ -118.375602762125922, 34.12213764299387 ], [ -118.375628830029868, 34.122056498567751 ], [ -118.375659935709109, 34.121993544095979 ], [ -118.375678012074331, 34.121972191827076 ], [ -118.375706023616587, 34.121955960950302 ], [ -118.375739015863729, 34.121945210346524 ], [ -118.37577037925675, 34.121939617076208 ], [ -118.375803414723393, 34.121938483906526 ], [ -118.375854640774506, 34.121941415983343 ], [ -118.375919107582249, 34.121949802619916 ], [ -118.375983591395908, 34.121961967506742 ], [ -118.376029909346684, 34.121975562819372 ], [ -118.376101104293809, 34.122010376788317 ], [ -118.376162325897553, 34.122031825832316 ], [ -118.376240079971339, 34.122055971263656 ], [ -118.376289688116103, 34.122066464867729 ], [ -118.376387219963291, 34.122080244972402 ], [ -118.376633486252246, 34.122105239199442 ], [ -118.376681430085824, 34.122112989947453 ], [ -118.376729394050784, 34.12212520592179 ], [ -118.376822045873539, 34.122155830761777 ], [ -118.376865084824331, 34.122174931741974 ], [ -118.37690484145547, 34.12219885173598 ], [ -118.376966174921421, 34.122245030962148 ], [ -118.376992684544405, 34.122262122538807 ], [ -118.377103638897438, 34.122321542833767 ], [ -118.377161582839307, 34.122348497363667 ], [ -118.377221160698937, 34.122371668428784 ], [ -118.377267483728289, 34.122386293708459 ], [ -118.377315444835091, 34.122397822489468 ], [ -118.377365042464206, 34.122405911289476 ], [ -118.377398096701185, 34.122408899448715 ], [ -118.37744765867555, 34.122409088165583 ], [ -118.377495515900662, 34.122397603688349 ], [ -118.377556528721612, 34.122372682172525 ], [ -118.377584547790349, 34.122358168262174 ], [ -118.377637266357269, 34.122325715941521 ], [ -118.377706479703093, 34.122287372802276 ], [ -118.377780697604862, 34.122260005508551 ], [ -118.377859897882956, 34.122238461841832 ], [ -118.377924275058675, 34.122226925546158 ], [ -118.377991984192477, 34.122221561530196 ], [ -118.378013466540096, 34.122222868284545 ], [ -118.378058081694405, 34.122225133133924 ], [ -118.378107680846512, 34.122233565109539 ], [ -118.378153999293176, 34.122247159608222 ], [ -118.378198685944795, 34.122265224503643 ], [ -118.378312935387171, 34.122322228983485 ], [ -118.378379205550559, 34.122363926734693 ], [ -118.37850350932932, 34.122452500202115 ], [ -118.378569773469195, 34.122492823927459 ], [ -118.378629367379034, 34.122519429102276 ], [ -118.378674049615341, 34.122536464282462 ], [ -118.378735264483865, 34.122556194621573 ], [ -118.378798118475018, 34.122572828425248 ], [ -118.378991575785307, 34.122610005335638 ], [ -118.3791072762357, 34.122622694919002 ], [ -118.379255992158505, 34.122629785033276 ], [ -118.379769827119546, 34.122640537057066 ], [ -118.379834291737893, 34.122648234644778 ], [ -118.379865720196676, 34.122656723003409 ], [ -118.379923657933318, 34.12268230229126 ], [ -118.380004827032977, 34.122730478540994 ], [ -118.38006944790439, 34.122772524040279 ], [ -118.380095525728606, 34.122790790097071 ], [ -118.380195404542306, 34.122860747093263 ], [ -118.380301435583149, 34.122926706170425 ], [ -118.380385888874159, 34.122970407424987 ], [ -118.380543184138844, 34.123047196469955 ], [ -118.380640891428357, 34.123099098561489 ], [ -118.380685582201124, 34.123117849498527 ], [ -118.38073189842828, 34.123130756048873 ], [ -118.380763315124241, 34.123136839815118 ], [ -118.380895560333556, 34.123154627846667 ], [ -118.381073755040688, 34.123104604264697 ], [ -118.381116624764957, 34.123086264372184 ], [ -118.38114133470269, 34.123070729614454 ], [ -118.381174181037352, 34.123028033853352 ], [ -118.381183972596233, 34.123001554605096 ], [ -118.38120181908775, 34.122930052475866 ], [ -118.381237745384283, 34.122838228585955 ], [ -118.381260637153304, 34.122786290097189 ], [ -118.38130159771616, 34.122711624572489 ], [ -118.381359036082884, 34.122627632939796 ], [ -118.381395172063392, 34.122581835370781 ], [ -118.381454337493281, 34.122514325536777 ], [ -118.381510268849794, 34.122461938333643 ], [ -118.381534970691618, 34.122444686093949 ], [ -118.381561338647145, 34.122430519956978 ], [ -118.3816075386015, 34.122418008625864 ], [ -118.381642213647424, 34.122414120801437 ], [ -118.381693418238584, 34.122412241678752 ], [ -118.381759525460708, 34.122417872140268 ], [ -118.381824015191725, 34.122431064352213 ], [ -118.381871981659657, 34.122443621766081 ], [ -118.381933203491997, 34.122464724406811 ], [ -118.382111942474168, 34.122534231355843 ], [ -118.382169887094193, 34.122561183488216 ], [ -118.382252692112047, 34.122605574720737 ], [ -118.382373542348702, 34.122660493584647 ], [ -118.382403328965438, 34.122671390875659 ], [ -118.382434748753099, 34.122678161167975 ], [ -118.382466141830903, 34.122679092286404 ], [ -118.38249586245955, 34.122675563380511 ], [ -118.382543723859001, 34.122665107345291 ], [ -118.382606405764975, 34.122643956331515 ], [ -118.38272676565748, 34.122591708977623 ], [ -118.382754787047205, 34.122577880829283 ], [ -118.382807505318425, 34.122545769733605 ], [ -118.38285855108326, 34.12250919860378 ], [ -118.382917803381645, 34.122460922050486 ], [ -118.383057609246976, 34.122326176280176 ], [ -118.383169533101295, 34.122235484864561 ], [ -118.38319417942796, 34.122206210474481 ], [ -118.38328310291287, 34.122143757669093 ], [ -118.383335811257155, 34.122109585461466 ], [ -118.383405019150828, 34.122070895582283 ], [ -118.383477559349984, 34.122038376924685 ], [ -118.383522095764079, 34.122023465741151 ], [ -118.383601308523396, 34.122005009635103 ], [ -118.38374989394373, 34.121983585349916 ], [ -118.3838308106629, 34.121976458698619 ], [ -118.383997636362707, 34.121970089534713 ], [ -118.384212346005015, 34.121958072165611 ], [ -118.384392352930107, 34.121944103876686 ], [ -118.384544248863591, 34.121924385511832 ], [ -118.384621831423928, 34.121910742717354 ], [ -118.384684538024175, 34.121895429794868 ], [ -118.384793425886556, 34.121863482523949 ], [ -118.384854455117122, 34.121842679088019 ], [ -118.384974844086074, 34.121797299102504 ], [ -118.385063879718516, 34.12175957556898 ], [ -118.385149595445725, 34.121718427695733 ], [ -118.385360556940995, 34.121610244333596 ], [ -118.385480855017832, 34.121545284566302 ], [ -118.385498979462653, 34.12153492219813 ], [ -118.385599537355958, 34.121488230898017 ], [ -118.385658912532378, 34.121467088846359 ], [ -118.385675405543552, 34.121461196966813 ], [ -118.385738097349616, 34.121442792175273 ], [ -118.385802456472533, 34.121427473397013 ], [ -118.385916353691542, 34.121407531108183 ], [ -118.385997266496531, 34.121399716045921 ], [ -118.386098033349057, 34.121398363728105 ], [ -118.386179004836066, 34.121403257314476 ], [ -118.386261661654117, 34.121415358652825 ], [ -118.386357584743763, 34.121438065573194 ], [ -118.386448584161101, 34.121468001353207 ], [ -118.386537964999718, 34.121505155433908 ], [ -118.386607525137649, 34.121543059822578 ], [ -118.38668211600654, 34.121597092789585 ], [ -118.386750132343508, 34.121658359040175 ], [ -118.386791630963572, 34.121701161910295 ], [ -118.386833205917014, 34.121760451819256 ], [ -118.386866538404874, 34.12182354643658 ], [ -118.38688494568828, 34.121874323348948 ], [ -118.386911696763235, 34.121942934787164 ], [ -118.387282532520459, 34.123181388492839 ], [ -118.387306100139511, 34.123276114938029 ], [ -118.387314482830448, 34.123302536449899 ], [ -118.387326164815761, 34.123327916932141 ], [ -118.387359436228721, 34.123377615685214 ], [ -118.38738933517476, 34.123412556268796 ], [ -118.38741255596608, 34.123432403992652 ], [ -118.387437410783633, 34.123448124649578 ], [ -118.38749861883484, 34.123465789668849 ], [ -118.387566377723019, 34.123471068177629 ], [ -118.387632446360158, 34.123468108420113 ], [ -118.387680301199211, 34.123456276429543 ], [ -118.387881556115872, 34.123392428513114 ], [ -118.388013461558884, 34.123336360494292 ], [ -118.388076143094722, 34.123315550127209 ], [ -118.38817187478783, 34.123296694499608 ], [ -118.388497099816263, 34.123247218119907 ], [ -118.388660551261808, 34.12322505304418 ], [ -118.388743123987879, 34.123218604751905 ], [ -118.38880921794447, 34.123221140035305 ], [ -118.389058787888104, 34.123244724398845 ], [ -118.389123218138295, 34.123244516982787 ], [ -118.389169439796916, 34.123236811484468 ], [ -118.389200788383249, 34.123228123406484 ], [ -118.389260155887655, 34.123205262183397 ], [ -118.389436550174281, 34.123124661853439 ], [ -118.38959314382123, 34.123049277373141 ], [ -118.389710203369305, 34.122998407632132 ], [ -118.389802569420013, 34.122966509117163 ], [ -118.389927955042737, 34.122930037797261 ], [ -118.390016999261405, 34.122894371495228 ], [ -118.390102704096961, 34.122851159226578 ], [ -118.3901570728233, 34.122819039589416 ], [ -118.390194944264337, 34.122792125469523 ], [ -118.39021798116751, 34.122772472426824 ], [ -118.39025577399758, 34.122728727756346 ], [ -118.390272181945974, 34.122704630796861 ], [ -118.390300030534192, 34.122654048514029 ], [ -118.390327811730458, 34.122589040055097 ], [ -118.390371662326089, 34.122427459386408 ], [ -118.39038145410926, 34.122401666354058 ], [ -118.390407653726442, 34.12235177634318 ], [ -118.390435575908583, 34.122316994120226 ], [ -118.390470120549779, 34.122285281864521 ], [ -118.390506339637881, 34.122258372984604 ], [ -118.390532702805089, 34.122243517930073 ], [ -118.390578878846142, 34.12222619444654 ], [ -118.390611880521419, 34.122217844144465 ], [ -118.390692789939834, 34.122208995494368 ], [ -118.390758867102008, 34.122208094909283 ], [ -118.390909224040783, 34.122212760981945 ], [ -118.391074479611405, 34.122223904884265 ], [ -118.391241325626822, 34.122221647480977 ], [ -118.39129252666865, 34.122219077331081 ], [ -118.391356921271054, 34.122211655643213 ], [ -118.391403130895412, 34.122201544929382 ], [ -118.39144765794083, 34.122184913424221 ], [ -118.391488848780909, 34.122161423000541 ], [ -118.391526713060586, 34.122133134543056 ], [ -118.391592498932823, 34.1220700635836 ], [ -118.39160890958469, 34.12204665340348 ], [ -118.391654750574205, 34.121957884723578 ], [ -118.391695770650486, 34.121897985327315 ], [ -118.391731897433459, 34.121851497708519 ], [ -118.391810784112039, 34.121763653216689 ], [ -118.391911129421644, 34.121672304238324 ], [ -118.392019763488705, 34.121587111029292 ], [ -118.392144894725845, 34.121497054499535 ], [ -118.392238794148184, 34.121440418189678 ], [ -118.392294829775778, 34.121412070516477 ], [ -118.392647639552195, 34.121258073829686 ], [ -118.39271851539705, 34.121223838494039 ], [ -118.39281075729339, 34.121166176667501 ], [ -118.392846968156775, 34.121137549682516 ], [ -118.392879861018415, 34.121106184687413 ], [ -118.392906134612176, 34.121072437705443 ], [ -118.392925782481953, 34.121034933918665 ], [ -118.392956795642519, 34.120955144468958 ], [ -118.392977893617655, 34.120874700279821 ], [ -118.392984493280395, 34.120839252941558 ], [ -118.392995618157798, 34.120779497182824 ], [ -118.393058842269241, 34.120523394036702 ], [ -118.393084834587981, 34.120429881465562 ], [ -118.393112546657761, 34.120350789683215 ], [ -118.393168190333213, 34.120239319403503 ], [ -118.393303278604989, 34.12015953383856 ], [ -118.393346137671287, 34.120139815689264 ], [ -118.393392330830679, 34.120126269410108 ], [ -118.393443512741314, 34.120119920067253 ], [ -118.393493081477857, 34.120121819605245 ], [ -118.393522852470838, 34.120129279353385 ], [ -118.393658582339967, 34.120185855919658 ], [ -118.393719805493731, 34.120206952588461 ], [ -118.393832246224676, 34.120229257184057 ], [ -118.393896721606538, 34.120239351631781 ], [ -118.393977712935779, 34.120248361751678 ], [ -118.393994229401969, 34.120247620939608 ], [ -118.394043736705086, 34.120236468005523 ], [ -118.394104759202946, 34.120214972037793 ], [ -118.394177290394296, 34.120181760901353 ], [ -118.394284370306181, 34.120118210298074 ], [ -118.394361766507203, 34.120065747994317 ], [ -118.394465423350084, 34.119976790476457 ], [ -118.394490116921403, 34.119958505149796 ], [ -118.394516470550727, 34.119941931826467 ], [ -118.394544487480914, 34.119927757465661 ], [ -118.394618689667894, 34.119898662433584 ], [ -118.394696221675559, 34.11987505224868 ], [ -118.394856291737483, 34.119838463423108 ], [ -118.394983340280746, 34.119805760647857 ], [ -118.395046029879822, 34.11978735102555 ], [ -118.395105391714637, 34.119764142551794 ], [ -118.395204282033632, 34.119715731262666 ], [ -118.395301497541169, 34.119662516573811 ], [ -118.39542340293427, 34.119590329329498 ], [ -118.395502462887791, 34.119540608732308 ], [ -118.39579888266951, 34.119342477704919 ], [ -118.395950359598302, 34.119235843632389 ], [ -118.396003064184924, 34.119202352863674 ], [ -118.396085459871117, 34.119159490662597 ], [ -118.396146482146051, 34.119137994562621 ], [ -118.396177828470229, 34.119129304676036 ], [ -118.396306545277184, 34.119100373376646 ], [ -118.396420443334321, 34.119081795110745 ], [ -118.396567388423364, 34.119064825733439 ], [ -118.396716017452192, 34.119054376873599 ], [ -118.396963802917199, 34.119052189325217 ], [ -118.397145538248495, 34.119056057583265 ], [ -118.397277739131709, 34.119064897201262 ], [ -118.397310800920735, 34.119069597314841 ], [ -118.397358757990119, 34.11908008770061 ], [ -118.397390190700591, 34.119089601945191 ], [ -118.39743322623977, 34.119107321678584 ], [ -118.397502789322104, 34.119145219793928 ], [ -118.397542558583353, 34.119170850397389 ], [ -118.39760555154264, 34.11921667023099 ], [ -118.397640381356013, 34.119245751907215 ], [ -118.397683533037394, 34.119287858639026 ], [ -118.397781525497592, 34.119398139383605 ], [ -118.397907839060082, 34.119558474790225 ], [ -118.397999169247868, 34.119657441372745 ], [ -118.39802741444062, 34.119691353419142 ], [ -118.398067344402705, 34.1197506449004 ], [ -118.398100684571986, 34.119813737317131 ], [ -118.398129077077911, 34.11987856254926 ], [ -118.398160906063964, 34.119971198778792 ], [ -118.398174378626152, 34.120025081616518 ], [ -118.398184813940446, 34.120134962595067 ], [ -118.398180106706278, 34.120187187898772 ], [ -118.39818024904126, 34.120217071569506 ], [ -118.398162797178955, 34.120368262682859 ], [ -118.398156712774366, 34.120478198086438 ], [ -118.398158886602019, 34.120587762799161 ], [ -118.398166081814011, 34.120711051291252 ], [ -118.398185169754356, 34.120903340286965 ], [ -118.398185560763324, 34.12098543203394 ], [ -118.398181062890401, 34.121081622793476 ], [ -118.398181653493637, 34.121205620016418 ], [ -118.398183503440819, 34.121247175667847 ], [ -118.398190371531726, 34.121301767235913 ], [ -118.398202123619257, 34.121341229350215 ], [ -118.398223848211728, 34.12139336756951 ], [ -118.398272177636059, 34.1214814840964 ], [ -118.39832372496744, 34.121551728752692 ], [ -118.398415067651371, 34.121652756808516 ], [ -118.398542790573174, 34.121761220617913 ], [ -118.398630739659737, 34.121843367098222 ], [ -118.398695469138559, 34.121906354924235 ], [ -118.398735326908906, 34.121950189583281 ], [ -118.398761924447427, 34.121984793870418 ], [ -118.398790241196949, 34.122033476287143 ], [ -118.398815266516962, 34.122084573055503 ], [ -118.398858718518952, 34.122189192751996 ], [ -118.398922307818822, 34.122359351705249 ], [ -118.398955723434185, 34.122437899594267 ], [ -118.39899573242171, 34.122513335240242 ], [ -118.399012365691831, 34.122536980830652 ], [ -118.399052220649736, 34.122580128425611 ], [ -118.399169977942151, 34.122676945977076 ], [ -118.399294318977908, 34.122768589381515 ], [ -118.399390499874926, 34.122844181896546 ], [ -118.399440234483251, 34.122880427006891 ], [ -118.399504858683017, 34.12292108909525 ], [ -118.399667105055315, 34.122993371630379 ], [ -118.39969360970268, 34.123008397347114 ], [ -118.399733381473496, 34.123034027232343 ], [ -118.399816303064654, 34.123100732638811 ], [ -118.399955731697531, 34.123237665550256 ], [ -118.400012219538567, 34.123304114808121 ], [ -118.400082051948289, 34.12339731264251 ], [ -118.400165146819575, 34.12350008322187 ], [ -118.40018674000946, 34.123524399202438 ], [ -118.400253183202793, 34.123599746010996 ], [ -118.400286370305551, 34.123630206319376 ], [ -118.400395812732512, 34.123715028231523 ], [ -118.400546763195607, 34.123842649091849 ], [ -118.400624753156535, 34.123914179091067 ], [ -118.400692860622954, 34.123991924543546 ], [ -118.400724399290112, 34.124023077169021 ], [ -118.400820581839625, 34.124098668552023 ], [ -118.400900117250629, 34.12414786668851 ], [ -118.400972967129093, 34.12418094313076 ], [ -118.401062346871612, 34.124215682108087 ], [ -118.401260932309413, 34.12428578191971 ], [ -118.401482740820143, 34.124375382044541 ], [ -118.401696227904679, 34.124451956968251 ], [ -118.401817052306839, 34.124498269389839 ], [ -118.401889902853469, 34.124531345279678 ], [ -118.401928020664272, 34.124556292976706 ], [ -118.40199603901965, 34.12461514629085 ], [ -118.402112252404535, 34.124732919659223 ], [ -118.402211903104558, 34.124842159993179 ], [ -118.402268314485184, 34.1248921211549 ], [ -118.402341276316321, 34.12494820993922 ], [ -118.402394605205956, 34.124986542460867 ], [ -118.402454008492612, 34.125029240710738 ], [ -118.402583286359004, 34.125115368552869 ], [ -118.402729112733525, 34.125206937790551 ], [ -118.402893233607998, 34.125323862906335 ], [ -118.402926419046082, 34.125353635531013 ], [ -118.402964631918593, 34.125398161266752 ], [ -118.403011237669091, 34.125470137855118 ], [ -118.403046232608673, 34.125532535546839 ], [ -118.403077931730664, 34.125596661647961 ], [ -118.403158107669853, 34.125778099036459 ], [ -118.403164843542413, 34.125804524960955 ], [ -118.403178193793622, 34.125831959278678 ], [ -118.403190030050013, 34.125888251437019 ], [ -118.403187350452285, 34.12601775445296 ], [ -118.403179446215418, 34.126091631128659 ], [ -118.403172978686712, 34.126120848979596 ], [ -118.40317307477045, 34.126140770824925 ], [ -118.403184864680483, 34.126187445541689 ], [ -118.403198212258658, 34.126214536380907 ], [ -118.403233157943419, 34.126266629616929 ], [ -118.403268060589525, 34.126309792360516 ], [ -118.403304562332877, 34.126341958218624 ], [ -118.403317822142043, 34.126350844599827 ], [ -118.403377448224077, 34.126381902815211 ], [ -118.403381012629808, 34.126435818162463 ], [ -118.40339287065612, 34.126496575543058 ], [ -118.403401262074041, 34.126523683802809 ], [ -118.403431357822143, 34.126597776249397 ], [ -118.403446453790963, 34.126644783392578 ], [ -118.403464844023972, 34.126689718623979 ], [ -118.403479842212747, 34.126716460437734 ], [ -118.403712668649874, 34.127033064629835 ], [ -118.40374430523589, 34.127083794831321 ], [ -118.403769312443913, 34.127130425342941 ], [ -118.403799468468293, 34.127216882982388 ], [ -118.403814607897075, 34.127272820562837 ], [ -118.403818023286547, 34.127295822689973 ], [ -118.403820261132452, 34.127417066545107 ], [ -118.40381887782695, 34.127472715840014 ], [ -118.403809670336997, 34.127618727997728 ], [ -118.403809967345111, 34.127680210935019 ], [ -118.403815157654208, 34.127728625070233 ], [ -118.40382188061713, 34.12775230311869 ], [ -118.403843626975032, 34.127807875137442 ], [ -118.403865278770581, 34.127843868786798 ], [ -118.403893514177184, 34.127874689050181 ], [ -118.403988050242333, 34.12794993996053 ], [ -118.404004631224154, 34.127962250023934 ], [ -118.404022849391922, 34.127971463241877 ], [ -118.404041065903527, 34.127980332976939 ], [ -118.404082432061401, 34.127993247148112 ], [ -118.404153508215003, 34.128000222712366 ], [ -118.404178290058667, 34.128000139847536 ], [ -118.404254216285111, 34.127985116052926 ], [ -118.404349925837266, 34.127961095404267 ], [ -118.404424116785876, 34.127928903025186 ], [ -118.404546076224506, 34.127867010966391 ], [ -118.404590597022519, 34.127849000696585 ], [ -118.404730807685596, 34.127803190281313 ], [ -118.404796832564998, 34.127790603698408 ], [ -118.405514656560129, 34.127613019885025 ], [ -118.405603747448041, 34.127587303017883 ], [ -118.405704423084629, 34.127565669028925 ], [ -118.405778708199691, 34.127553054182748 ], [ -118.405839816405049, 34.127548727190849 ], [ -118.405938972677518, 34.127554233475493 ], [ -118.406006769408847, 34.12756637124798 ], [ -118.40605971548338, 34.127582337215976 ], [ -118.406102775588081, 34.127603832146974 ], [ -118.406162366882171, 34.127627332427998 ], [ -118.406225285810166, 34.127655630295678 ], [ -118.406294870008949, 34.127695584239298 ], [ -118.406367825300435, 34.127749266236542 ], [ -118.406523783605834, 34.127884076063033 ], [ -118.406591836306617, 34.127948765956873 ], [ -118.406618417285642, 34.127978903279576 ], [ -118.406658350616084, 34.128036818015019 ], [ -118.406661012761575, 34.128042534721352 ], [ -118.406695081691481, 34.128115696138842 ], [ -118.40672530293385, 34.128214861812751 ], [ -118.406745557995691, 34.128303070376674 ], [ -118.406757473888362, 34.128375162272079 ], [ -118.406767588912444, 34.128416690000705 ], [ -118.406772620520741, 34.128432129923794 ], [ -118.406782663684936, 34.128458888008524 ], [ -118.40679147427764, 34.128571865148508 ], [ -118.406795040978764, 34.128625780398046 ], [ -118.406801885211578, 34.128674188845793 ], [ -118.406807543696701, 34.128818434693379 ], [ -118.406821419442508, 34.128953721355103 ], [ -118.40684173830698, 34.129054981245609 ], [ -118.406851843424477, 34.129094448087521 ], [ -118.406880341168176, 34.129178849643125 ], [ -118.406898700369254, 34.129216915655064 ], [ -118.406918683305065, 34.129249136039689 ], [ -118.406960269598954, 34.129307045115169 ], [ -118.406986845537389, 34.129335808433972 ], [ -118.407128119696694, 34.129508105980655 ], [ -118.407192888285039, 34.129576584949042 ], [ -118.407252593413048, 34.129623097858236 ], [ -118.407280768747626, 34.129641208569204 ], [ -118.407342039088235, 34.129669854903931 ], [ -118.407484504567122, 34.129747345969506 ], [ -118.407539170857575, 34.129776701439425 ], [ -118.407568973338499, 34.129789653410384 ], [ -118.407708037743959, 34.129847233510624 ], [ -118.407928150388599, 34.129923431669759 ], [ -118.408037441141246, 34.129973898669803 ], [ -118.408234621490791, 34.130090362414983 ], [ -118.408266093131729, 34.130106743434794 ], [ -118.408358815691244, 34.130147648505371 ], [ -118.408400270853917, 34.130178422162345 ], [ -118.408413556986829, 34.130192460186258 ], [ -118.408435194584669, 34.130225018218617 ], [ -118.408461946473693, 34.130289846623128 ], [ -118.408468669280424, 34.130313180934515 ], [ -118.408468959654215, 34.130372602984018 ], [ -118.408462643024123, 34.130432390846124 ], [ -118.408462966962887, 34.130498682497013 ], [ -118.408459786822462, 34.130524111187292 ], [ -118.408458470338843, 34.130592813683272 ], [ -118.408455278444592, 34.130615838013043 ], [ -118.408448918148309, 34.130666695393238 ], [ -118.408442433645561, 34.130692135248864 ], [ -118.408437953767049, 34.1307897003338 ], [ -118.408431536384157, 34.130828879391331 ], [ -118.408425025010885, 34.130848823565103 ], [ -118.408413567165994, 34.130870845366232 ], [ -118.408384020921574, 34.130910446052489 ], [ -118.408367577988685, 34.13092664543403 ], [ -118.408349518106306, 34.130950063476163 ], [ -118.408329859725299, 34.130984478458828 ], [ -118.408321694460142, 34.131004085629861 ], [ -118.408262710807961, 34.131105613154674 ], [ -118.408248050847945, 34.131148598384783 ], [ -118.408241645091294, 34.131190181792974 ], [ -118.408241742388952, 34.131210103636768 ], [ -118.408253438543809, 34.131236856021076 ], [ -118.408263521104686, 34.13127151402616 ], [ -118.408271869280043, 34.131289347087588 ], [ -118.408293507106606, 34.131321905146116 ], [ -118.408325039626874, 34.131350651433465 ], [ -118.408406285535236, 34.131409456499988 ], [ -118.408525763622237, 34.131515534238275 ], [ -118.408555670964219, 34.131549781730492 ], [ -118.408577325758117, 34.131585774539047 ], [ -118.408594040778013, 34.131625218899117 ], [ -118.408609202683522, 34.131684934165712 ], [ -118.408610933795373, 34.131701072143663 ], [ -118.408604714551274, 34.131780781858836 ], [ -118.408596707095882, 34.131832675273486 ], [ -118.408583727921751, 34.131881494121217 ], [ -118.408567435941777, 34.131928607637846 ], [ -118.408546168868511, 34.131971958722758 ], [ -118.408529918813997, 34.132027658334586 ], [ -118.408528390838512, 34.132053081443651 ], [ -118.408531827865588, 34.132080205201063 ], [ -118.408543532629068, 34.132108674958289 ], [ -118.408565127122387, 34.132132302487008 ], [ -118.408580042292769, 34.132141526187858 ], [ -118.40861313843395, 34.132152062372263 ], [ -118.408677654430065, 34.132167988095269 ], [ -118.408718984747651, 34.132173000639405 ], [ -118.408808212221373, 34.132174416332646 ], [ -118.408867718487286, 34.132179710839054 ], [ -118.408915694610599, 34.132192257522838 ], [ -118.408981913915824, 34.132218825379795 ], [ -118.409021674428516, 34.132240673933708 ], [ -118.409041561416004, 34.132252972125983 ], [ -118.409064799889734, 34.132274876574307 ], [ -118.409084767581248, 34.132303661802482 ], [ -118.409108179241002, 34.132360945590506 ], [ -118.409106703550165, 34.132397016588961 ], [ -118.409085490430598, 34.132451359131331 ], [ -118.409061103973372, 34.132532504297579 ], [ -118.409048203963522, 34.132597466759087 ], [ -118.409040339578041, 34.132678556009736 ], [ -118.409040447152918, 34.132700538733971 ], [ -118.409045597100416, 34.132740022168704 ], [ -118.409070724950396, 34.132810352616062 ], [ -118.409084046916092, 34.13283160364854 ], [ -118.409099005977112, 34.132849757767261 ], [ -118.409115581958915, 34.132860693210766 ], [ -118.409160260797933, 34.132874624901845 ], [ -118.409251241553108, 34.132896299995728 ], [ -118.409327304196268, 34.132908407937876 ], [ -118.409363669848901, 34.132911719645804 ], [ -118.409396751252913, 34.132919164295274 ], [ -118.409431500024922, 34.132929694659985 ], [ -118.409492765099571, 34.132956622506448 ], [ -118.409519271306806, 34.132970959112065 ], [ -118.409608853117675, 34.133044505027485 ], [ -118.409650370778607, 34.133087643540101 ], [ -118.409665338425683, 34.133107514989128 ], [ -118.409685341876738, 34.13314351319999 ], [ -118.409705437943032, 34.133198402811011 ], [ -118.409717149397991, 34.133227902891733 ], [ -118.409730545681953, 34.133264267877458 ], [ -118.40975904101883, 34.13334729484253 ], [ -118.409799152541112, 34.133440586994254 ], [ -118.40982081678068, 34.133478296981977 ], [ -118.409834113781514, 34.133494395731205 ], [ -118.409864007209279, 34.133525551580782 ], [ -118.40990880949272, 34.13356455703989 ], [ -118.409933673838623, 34.133580960037989 ], [ -118.410018123051088, 34.133618457054027 ], [ -118.410071082151021, 34.133636138667484 ], [ -118.410105816138781, 34.133643577518008 ], [ -118.410153747780981, 34.133646849749177 ], [ -118.410196689011798, 34.13364326918056 ], [ -118.410285713473016, 34.133602779212495 ], [ -118.41032691476191, 34.133581343242611 ], [ -118.410374644014098, 34.133543397779476 ], [ -118.41041409351466, 34.133501702065885 ], [ -118.410437083076502, 34.133472771203017 ], [ -118.410456759728746, 34.133442134156134 ], [ -118.410471498232482, 34.133415292218309 ], [ -118.41054343209845, 34.133259448870788 ], [ -118.410586027228973, 34.133185453852128 ], [ -118.410630309947436, 34.133118667188498 ], [ -118.410671278025077, 34.133049830854901 ], [ -118.410735113827116, 34.132927333025116 ], [ -118.410821627445628, 34.132712359513285 ], [ -118.410847681343014, 34.132634643176281 ], [ -118.410854131498155, 34.132602333589652 ], [ -118.410875289477616, 34.132536999375496 ], [ -118.410904730428811, 34.132476102316332 ], [ -118.410921119140156, 34.132448911227826 ], [ -118.410939176937276, 34.132425149320603 ], [ -118.410958915642013, 34.13240722095415 ], [ -118.411005052529291, 34.132381646141667 ], [ -118.411044609268671, 34.132361932945813 ], [ -118.411066050819414, 34.132354303344606 ], [ -118.411087512637437, 34.132350795500038 ], [ -118.411127174087042, 34.132352378039357 ], [ -118.411168540124194, 34.132364602826655 ], [ -118.411199987850509, 34.132375830882921 ], [ -118.411279479784497, 34.132413343878021 ], [ -118.41138897130817, 34.132503308050779 ], [ -118.411413867750355, 34.132526236864607 ], [ -118.411442099063862, 34.132555337066414 ], [ -118.411486975963697, 34.132609455061107 ], [ -118.4115036384501, 34.132637907658697 ], [ -118.411538690081628, 34.132709920343352 ], [ -118.41157215044646, 34.132794304826199 ], [ -118.411589019341349, 34.132864661976065 ], [ -118.4116111375412, 34.132994424291326 ], [ -118.411622960193412, 34.133046593873125 ], [ -118.411651848094834, 34.133208964279611 ], [ -118.411696235513944, 34.133499059510235 ], [ -118.411726730266665, 34.133652150312216 ], [ -118.411770390577672, 34.133794549101992 ], [ -118.411785465461378, 34.13383605953117 ], [ -118.411840603643668, 34.133960557032822 ], [ -118.411862277401482, 34.133999984055322 ], [ -118.41191243984791, 34.134120376648966 ], [ -118.411925835537275, 34.134156397912108 ], [ -118.411939319259389, 34.134210279234253 ], [ -118.411954778582341, 34.134329759611568 ], [ -118.411961768473773, 34.134407020097157 ], [ -118.411962151068821, 34.134484646586166 ], [ -118.411952628616248, 34.134564024260492 ], [ -118.411951066085479, 34.134582234333386 ], [ -118.411944865052234, 34.134665036447707 ], [ -118.411956811729468, 34.13474228004204 ], [ -118.411963544334625, 34.134767331561768 ], [ -118.411981961249353, 34.134816387266433 ], [ -118.411991964522642, 34.134834557921344 ], [ -118.41201525358791, 34.134866422724933 ], [ -118.412063419684799, 34.134917094444859 ], [ -118.412080003237975, 34.134929403402566 ], [ -118.412109816727337, 34.134944071655731 ], [ -118.412154515809775, 34.134961780521181 ], [ -118.412200840069161, 34.134973988055279 ], [ -118.412223980182119, 34.134975626575176 ], [ -118.412247103355199, 34.134973830290235 ], [ -118.412427051657005, 34.134942989717743 ], [ -118.412621706293208, 34.134879124039585 ], [ -118.412809841512356, 34.134833485059808 ], [ -118.413080313741617, 34.13473157625868 ], [ -118.413149530199476, 34.134695273696913 ], [ -118.413207189309873, 34.134660728031498 ], [ -118.413291185919803, 34.134606170115376 ], [ -118.413358670089494, 34.134553728620382 ], [ -118.413375111069826, 34.134537185078493 ], [ -118.413411319597856, 34.134508551926949 ], [ -118.41345569760486, 34.134461342587322 ], [ -118.413475415861257, 34.134439292048832 ], [ -118.41353123656755, 34.134366969074918 ], [ -118.413555818055329, 34.134326010165353 ], [ -118.413593462827521, 34.134253749344644 ], [ -118.413644172507759, 34.134150530080731 ], [ -118.413668743672631, 34.1341075093668 ], [ -118.413676904591171, 34.134087215774692 ], [ -118.413704744507456, 34.134036971566047 ], [ -118.413722793355646, 34.13401149184206 ], [ -118.413734306337972, 34.134000804376484 ], [ -118.413763959958715, 34.133983185100227 ], [ -118.413798573688325, 34.133966235808899 ], [ -118.413820023901891, 34.133960323118998 ], [ -118.413838190039698, 34.133958543498466 ], [ -118.413947214066823, 34.133953361398156 ], [ -118.41399515284202, 34.133958006026155 ], [ -118.414041470008186, 34.133968838934649 ], [ -118.414110997915785, 34.133995392660481 ], [ -118.414149099863621, 34.134015527788897 ], [ -118.414203828073383, 34.134056558571487 ], [ -118.414246985530781, 34.134096598524671 ], [ -118.414268587256998, 34.134121255475605 ], [ -118.414286915156993, 34.134152107289658 ], [ -118.414300311870349, 34.134188127388128 ], [ -118.414307080886317, 34.134220391857042 ], [ -118.414300669396127, 34.134260258189215 ], [ -118.414299187400076, 34.134294611852653 ], [ -118.414289425439065, 34.134325215549822 ], [ -118.414274688000972, 34.134352057953691 ], [ -118.414254995510802, 34.134379260822605 ], [ -118.413803054394521, 34.134871307448662 ], [ -118.413691304349342, 34.134993627414794 ], [ -118.412348583795989, 34.136453568189047 ], [ -118.412268050244109, 34.136540744787411 ], [ -118.412204249501713, 34.136670456518054 ], [ -118.412179751354088, 34.136728589157663 ], [ -118.412170023902618, 34.136766405766551 ], [ -118.412165236393733, 34.136800770673148 ], [ -118.412170496477941, 34.136862237603545 ], [ -118.412180613524711, 34.136903421407446 ], [ -118.412225677886894, 34.136994978459505 ], [ -118.412307558943553, 34.137180868532603 ], [ -118.412366003032531, 34.137305011954275 ], [ -118.412411006801378, 34.13738420365604 ], [ -118.412432646123307, 34.137416417498109 ], [ -118.412525666416869, 34.137515367505188 ], [ -118.412618765542547, 34.137630461007234 ], [ -118.41263540567499, 34.137654104731276 ], [ -118.412671960070398, 34.137695198250455 ], [ -118.412705203088137, 34.137734929120512 ], [ -118.412824765230297, 34.137855085307152 ], [ -118.412849692502945, 34.137883852988999 ], [ -118.412944461775325, 34.138002375398628 ], [ -118.412974425860085, 34.1380472696843 ], [ -118.41302439714346, 34.138128161621296 ], [ -118.413149411357551, 34.138348253247578 ], [ -118.413204374551157, 34.138436341254049 ], [ -118.413416182579141, 34.138832344154217 ], [ -118.413451299624199, 34.138916721576329 ], [ -118.413464713732779, 34.138956176571831 ], [ -118.413476494205696, 34.138999415498006 ], [ -118.413488437820234, 34.139075628508344 ], [ -118.413500592176263, 34.139194433945896 ], [ -118.413502402557071, 34.139226371939102 ], [ -118.413510907286678, 34.139275461327003 ], [ -118.413541935397745, 34.139535030504859 ], [ -118.413561146295692, 34.139744148582658 ], [ -118.413579910274976, 34.13986293050128 ], [ -118.413622325789134, 34.140086395589172 ], [ -118.41363411670217, 34.140131695381442 ], [ -118.41365955152969, 34.140262819955694 ], [ -118.413681790507923, 34.140415938557837 ], [ -118.413687213445513, 34.140510036032957 ], [ -118.41368768437691, 34.140605180010212 ], [ -118.41369121183682, 34.140650164589445 ], [ -118.413699047148043, 34.140897791998682 ], [ -118.413698348563429, 34.141090489969983 ], [ -118.413697808462629, 34.141982869956884 ], [ -118.413696989877621, 34.14348665671541 ], [ -118.413699684735946, 34.144031073551794 ], [ -118.413702085489689, 34.144516069239906 ], [ -118.41375639267055, 34.145138280761884 ], [ -118.413772193323055, 34.145325769993661 ], [ -118.413791314852787, 34.145850209346392 ], [ -118.413783831888992, 34.14634142072569 ], [ -118.41378152348129, 34.146542711377172 ], [ -118.413778660825102, 34.146719225158172 ], [ -118.414197092540732, 34.146701352792341 ], [ -118.414368951701249, 34.146700763880666 ], [ -118.414537628544281, 34.146724916623654 ], [ -118.414775874925496, 34.146781806025082 ], [ -118.414948034401448, 34.146841668786237 ], [ -118.415176529142215, 34.146931564618832 ], [ -118.415500884014946, 34.147023878497706 ], [ -118.415705944145216, 34.147053400342919 ], [ -118.415933962709872, 34.147047120318433 ], [ -118.416158552010003, 34.147016120678913 ], [ -118.416452533425712, 34.146982133722638 ], [ -118.416849216100189, 34.146997253967463 ], [ -118.417050916794807, 34.147015793564741 ], [ -118.417358706814824, 34.147099915944985 ], [ -118.417511039871101, 34.147159843507197 ], [ -118.417739758006974, 34.147293700844436 ], [ -118.418134539704951, 34.147589108014976 ], [ -118.418423328268261, 34.147838167592596 ], [ -118.418695140138254, 34.147996604075288 ], [ -118.418890495274681, 34.148067372461888 ], [ -118.419165103880118, 34.148124127246746 ], [ -118.419456016308914, 34.148136857733824 ], [ -118.419740140414845, 34.148113888543044 ], [ -118.420205903286032, 34.148062807725097 ], [ -118.420407469066063, 34.148053863321095 ], [ -118.420619115876377, 34.148077859069161 ], [ -118.420930164163394, 34.148150969495823 ], [ -118.421152017288065, 34.148232633530405 ], [ -118.421566590368684, 34.148516969058996 ], [ -118.42181235826547, 34.148752431150243 ], [ -118.421935228315334, 34.148867413719984 ], [ -118.422157083383141, 34.149059010385614 ], [ -118.422507042563765, 34.149381355390616 ], [ -118.422507030105677, 34.149523881416357 ], [ -118.422507969578817, 34.149709704095812 ], [ -118.422509680754175, 34.150375032436962 ], [ -118.421428886081884, 34.150375713182392 ], [ -118.420343133699603, 34.150376401502633 ], [ -118.419257381299502, 34.150377080072431 ], [ -118.418156755802613, 34.150377800332684 ], [ -118.417072655931449, 34.150378453567193 ], [ -118.416688161116767, 34.150378628959707 ], [ -118.416038132979594, 34.150378926492991 ], [ -118.414975516417698, 34.150379486995256 ], [ -118.413785650658198, 34.150380130242752 ], [ -118.41378618173205, 34.151822428645829 ], [ -118.413786529225064, 34.152226367845344 ], [ -118.413790123516932, 34.153286011543393 ], [ -118.413789114343857, 34.153749721954924 ], [ -118.413788693094673, 34.153998408140239 ], [ -118.413789949398634, 34.154919635023852 ], [ -118.413789422092592, 34.155814419605392 ], [ -118.413788884020619, 34.156373274042032 ], [ -118.413788624334387, 34.15665458995246 ], [ -118.413789074584272, 34.156745515733327 ], [ -118.40523769841181, 34.156705459851928 ], [ -118.405238195156684, 34.15680789180319 ], [ -118.405240505228008, 34.157625038748648 ], [ -118.405520258722177, 34.157768468582503 ], [ -118.4057534473163, 34.157864418588403 ], [ -118.40608960726874, 34.157967464556755 ], [ -118.406425676484901, 34.158051906666529 ], [ -118.406932249488307, 34.158168248435899 ], [ -118.407478264276705, 34.158292812432776 ], [ -118.408149995093964, 34.158438932778225 ], [ -118.408570352483764, 34.158552925299652 ], [ -118.408778919748215, 34.158618169673105 ], [ -118.409014064423701, 34.158710802663535 ], [ -118.409269123151205, 34.158819855120861 ], [ -118.409491115481629, 34.158926271141631 ], [ -118.409746296762648, 34.159060054071546 ], [ -118.410047918451525, 34.159226652736777 ], [ -118.410299903996844, 34.15938242844323 ], [ -118.410522209632262, 34.159552042934145 ], [ -118.410744582621973, 34.159735396229493 ], [ -118.410943778585278, 34.159910585128728 ], [ -118.411096602471076, 34.160066695252567 ], [ -118.411246189027949, 34.160236555634739 ], [ -118.411485635420533, 34.16052976592561 ], [ -118.411598781467291, 34.160683262553064 ], [ -118.411715314713618, 34.160853235771945 ], [ -118.411931881930329, 34.16119873296185 ], [ -118.412038677111212, 34.1614044606902 ], [ -118.412122319163629, 34.161607519352138 ], [ -118.412212749016874, 34.161846278263624 ], [ -118.41230324718137, 34.162098776317002 ], [ -118.412360405079824, 34.162293681457108 ], [ -118.412425123874058, 34.162680913844483 ], [ -118.412507049713241, 34.163205481904207 ], [ -118.41259629455827, 34.163872915121964 ], [ -118.413220734927634, 34.168518845712448 ], [ -118.413640755368505, 34.168517409759204 ], [ -118.413763067685906, 34.168515960869115 ], [ -118.413760705884869, 34.168706603705189 ], [ -118.413755887000391, 34.169068655387306 ], [ -118.413758701712965, 34.169303247629067 ], [ -118.413766223515921, 34.169486986929464 ], [ -118.413796028095959, 34.169831058873214 ], [ -118.413868041586127, 34.170353599115039 ], [ -118.41398295112964, 34.171193031018269 ], [ -118.413988080256061, 34.171227362065956 ], [ -118.414154648760814, 34.172150084085246 ], [ -118.413951328635378, 34.172150436719861 ], [ -118.413710018529756, 34.1721567582427 ], [ -118.413404247272567, 34.172164673599433 ], [ -118.41321084168483, 34.172164304124628 ], [ -118.413276567725163, 34.172752815532974 ], [ -118.413384856166829, 34.172922815414125 ], [ -118.413398183926503, 34.172943722505792 ], [ -118.413398493250895, 34.173006235911103 ], [ -118.41340205931435, 34.173058777088038 ], [ -118.413409250941825, 34.173175881250465 ], [ -118.413488048696692, 34.173733090641754 ], [ -118.413582345480535, 34.174415620302007 ], [ -118.413680058758317, 34.175120120419884 ], [ -118.413743463127872, 34.175572275583313 ], [ -118.413744596038953, 34.17580103433405 ], [ -118.413745363220983, 34.175955943928898 ], [ -118.413751376504663, 34.178505282444839 ], [ -118.413752719189503, 34.178929698633105 ], [ -118.413754301215675, 34.179429595297194 ], [ -118.413756066183353, 34.180453523091273 ], [ -118.413755848359017, 34.183079823919329 ], [ -118.413756716403668, 34.184924001428833 ], [ -118.413755598357014, 34.186701205967978 ], [ -118.41591644374607, 34.186693795035374 ], [ -118.416688167786106, 34.186691137137238 ], [ -118.417265525839113, 34.186689148587952 ], [ -118.417552379702272, 34.186692406728248 ], [ -118.422483322757586, 34.19395862040966 ], [ -118.425115988135957, 34.197837504010842 ], [ -118.426019337014651, 34.199235752946457 ], [ -118.426086207192938, 34.199378407743112 ], [ -118.426153161728166, 34.199537550450827 ], [ -118.426260194143282, 34.199773491944661 ], [ -118.426360571986706, 34.200001214029484 ], [ -118.426447622673223, 34.200209746877945 ], [ -118.42652130503852, 34.200390848794989 ], [ -118.426565027212163, 34.200533584943898 ], [ -118.426748391426244, 34.201206859314269 ], [ -118.426777363045119, 34.201313238773231 ], [ -118.426831386754515, 34.201530131532813 ], [ -118.426872042745771, 34.201719593434397 ], [ -118.426940054170217, 34.202084822882 ], [ -118.426998257020827, 34.202472070940082 ], [ -118.42713484494557, 34.203312445099535 ], [ -118.427186730241843, 34.203757421081889 ], [ -118.427225232436854, 34.204172217508514 ], [ -118.42723290122079, 34.204378282224006 ], [ -118.427237192488647, 34.204570620315053 ], [ -118.427231519761165, 34.204754749019628 ], [ -118.427203623709318, 34.205120317882056 ], [ -118.427152758963018, 34.205521690412809 ], [ -118.427117488771174, 34.20573889829415 ], [ -118.427078868916865, 34.205947875218861 ], [ -118.427036871275476, 34.206143123698681 ], [ -118.426998054338256, 34.206313630823551 ], [ -118.42689415779256, 34.206693207271606 ], [ -118.426809668091991, 34.206987529656139 ], [ -118.426770667749295, 34.207122314774573 ], [ -118.42670233610842, 34.207342387038025 ], [ -118.42636414829029, 34.208475712919075 ], [ -118.426240624832971, 34.20889932329802 ], [ -118.425996981936194, 34.209765768715776 ], [ -118.425876889412848, 34.210214098546054 ], [ -118.42559742916886, 34.211193333610922 ], [ -118.425451194017796, 34.211704956439419 ], [ -118.425178031178874, 34.212623713865938 ], [ -118.424963351922742, 34.213336172579865 ], [ -118.424687052397474, 34.214290662450381 ], [ -118.424410943168809, 34.215283622365121 ], [ -118.424086452274196, 34.21652131253898 ], [ -118.423846002826963, 34.217374002820073 ], [ -118.423299613737271, 34.21921425762995 ], [ -118.423120980592799, 34.219857743546164 ], [ -118.42273718513006, 34.219851331742611 ], [ -118.420689598897056, 34.219857437370351 ], [ -118.420211607616892, 34.219858754753218 ], [ -118.416799513443351, 34.219868494939611 ], [ -118.416688174716384, 34.219868544826518 ], [ -118.41542010382399, 34.219869116633888 ], [ -118.414394643537236, 34.219869541431777 ], [ -118.41299704162769, 34.219870197804241 ], [ -118.410699680518505, 34.219871147362426 ], [ -118.410243458354785, 34.2198728067563 ], [ -118.409648280443491, 34.219861044030417 ], [ -118.409210879704645, 34.21823290800198 ], [ -118.408538870499143, 34.215759372710309 ], [ -118.408537957673289, 34.215756014857888 ], [ -118.407964912829456, 34.213637717993528 ], [ -118.407668434696532, 34.212595296807557 ], [ -118.406133750717913, 34.206936772676919 ], [ -118.405927102097195, 34.2063099460728 ], [ -118.405875845500859, 34.206424805408076 ], [ -118.405705272278055, 34.206715623212958 ], [ -118.405619981597383, 34.206860174223927 ], [ -118.405521441116306, 34.207000646851618 ], [ -118.405488630906007, 34.207055027612519 ], [ -118.405400147173978, 34.207223289703144 ], [ -118.405378884291508, 34.207271792477968 ], [ -118.405357639723647, 34.207324073533847 ], [ -118.405336456812904, 34.207389063362058 ], [ -118.405263205720559, 34.207629405478365 ], [ -118.40525021948902, 34.207679598837416 ], [ -118.405227722708091, 34.207814664194686 ], [ -118.405219815863148, 34.207889227143248 ], [ -118.40521523807999, 34.207968244259675 ], [ -118.405209848228637, 34.208220725436419 ], [ -118.40521256290377, 34.208317494657003 ], [ -118.405213847303571, 34.208363258740249 ], [ -118.40522114548979, 34.208504063564334 ], [ -118.40465715584368, 34.208491181309498 ], [ -118.40234686363803, 34.208489268686087 ], [ -118.400228408559073, 34.208487707957552 ], [ -118.398155105352643, 34.208485765019581 ], [ -118.396514081488831, 34.208484137625014 ], [ -118.394339398695735, 34.208482314558516 ], [ -118.393241307097043, 34.208481423308456 ], [ -118.39214817775472, 34.208480506008307 ], [ -118.391686781351723, 34.208479939702741 ], [ -118.391056703760839, 34.208479916967093 ], [ -118.390026419963235, 34.208479464322544 ], [ -118.387792205764981, 34.208478402441457 ], [ -118.386652774061673, 34.208477927376222 ], [ -118.385561301728018, 34.208477632239223 ], [ -118.384483057551179, 34.208476941733267 ], [ -118.383421352132757, 34.208476532692018 ], [ -118.382333185689774, 34.208475854470471 ], [ -118.381230135816423, 34.208475213360323 ], [ -118.380145278405379, 34.208474848519593 ], [ -118.379062074720508, 34.208474468770028 ], [ -118.37781514998936, 34.208473903722691 ], [ -118.376870853880064, 34.208472040044043 ], [ -118.37502056555104, 34.208468470262424 ], [ -118.374687894046417, 34.208467828621309 ], [ -118.371979247942974, 34.208462544667924 ], [ -118.37032362876154, 34.208459282552774 ], [ -118.369531479060427, 34.208457582772063 ], [ -118.368175420366285, 34.20845999953724 ], [ -118.367047575635283, 34.208461708972671 ], [ -118.365970993079657, 34.208462565873241 ], [ -118.364851418356125, 34.208464573305349 ], [ -118.36375995228552, 34.20846545541292 ], [ -118.363220834858026, 34.208466044656291 ], [ -118.36319893871071, 34.208317500183838 ], [ -118.362984390316484, 34.206862012699474 ], [ -118.363002185096661, 34.206862277552162 ], [ -118.362697398333125, 34.20484246216008 ], [ -118.362392444075695, 34.202780397842183 ], [ -118.362147173232913, 34.201132055934117 ], [ -118.365236104880353, 34.201134791727334 ], [ -118.365958718455147, 34.201132951449232 ], [ -118.365958415939488, 34.201063911778974 ], [ -118.3701550526945, 34.20106629529807 ], [ -118.370155607100529, 34.200399891964338 ], [ -118.370158106610944, 34.197605967448013 ], [ -118.370159167384642, 34.196352926222758 ], [ -118.36596058736265, 34.195521411527793 ], [ -118.365960954577346, 34.195605221778436 ], [ -118.36534035662909, 34.195481724541125 ], [ -118.361160069632902, 34.194653079629248 ], [ -118.359963352180955, 34.186687426314307 ], [ -118.359696169128725, 34.184919267761764 ], [ -118.359693570770006, 34.184902088597717 ], [ -118.359139725790897, 34.181239094247161 ], [ -118.358954272167978, 34.180016147188816 ], [ -118.358864973898591, 34.179443255910442 ], [ -118.358734969711549, 34.178609192126075 ], [ -118.358687233957014, 34.178272030180707 ], [ -118.35866851580785, 34.178147743992113 ], [ -118.358634419811722, 34.177907060963847 ], [ -118.358586793967717, 34.177595317475507 ], [ -118.358326376088769, 34.175849462702217 ], [ -118.357967308045616, 34.173453679927732 ], [ -118.357849900850113, 34.172672253875561 ], [ -118.357780139176, 34.172208410701622 ], [ -118.357073786017494, 34.170541499593313 ], [ -118.356460980817587, 34.16909826208105 ], [ -118.355878331014964, 34.167744582471443 ], [ -118.355178851944814, 34.166121606495878 ], [ -118.35466129103699, 34.164905811074895 ], [ -118.35543322686334, 34.164915566580476 ], [ -118.355606598383758, 34.164873151664544 ], [ -118.35572719939087, 34.164859057539338 ], [ -118.355834586676593, 34.164847406574189 ], [ -118.356023001843539, 34.164844447598014 ], [ -118.357170095219189, 34.164843469317795 ], [ -118.357160384361649, 34.164118399662463 ], [ -118.357164345153819, 34.163111629902076 ], [ -118.357163123897607, 34.161665901284813 ], [ -118.357163179297842, 34.161292188246158 ], [ -118.355098800386841, 34.161286933214356 ], [ -118.354974840493298, 34.161287297177687 ], [ -118.353112153760662, 34.161293781436655 ], [ -118.352901782422293, 34.160792562782071 ], [ -118.352714827422759, 34.160356194174931 ], [ -118.352417694322824, 34.159659784669948 ], [ -118.352155738705193, 34.159073873342969 ], [ -118.351841812768527, 34.158312249184156 ], [ -118.351259311918938, 34.15695854753487 ], [ -118.349954033578655, 34.15389019489173 ], [ -118.349793909486493, 34.153539272044256 ], [ -118.349660464427956, 34.153244603401113 ], [ -118.349443520721309, 34.15274271095096 ], [ -118.349224910874682, 34.152236701114525 ], [ -118.349002957234944, 34.151721082963917 ], [ -118.348443938848845, 34.150428097245744 ], [ -118.348055140606562, 34.149528940896069 ], [ -118.347669689009322, 34.148638017353399 ], [ -118.3475512163063, 34.148363569917393 ], [ -118.34729257387356, 34.147762868987066 ], [ -118.347149080555781, 34.147431818003248 ], [ -118.34680206612525, 34.146639705107141 ], [ -118.346154712602512, 34.145148427232471 ], [ -118.345083528214047, 34.142657096820045 ], [ -118.34409193059922, 34.143427270523958 ], [ -118.343530225028672, 34.143860629507742 ], [ -118.343092104316725, 34.144209823965703 ], [ -118.342660537980905, 34.144546633692464 ], [ -118.342288248542417, 34.14483243827825 ], [ -118.340894496566818, 34.145468798881332 ], [ -118.340785634825039, 34.145518501816099 ], [ -118.34001096061958, 34.145603462871435 ], [ -118.338819742252639, 34.145253017678158 ], [ -118.336617112335688, 34.146518388183296 ], [ -118.334694355190351, 34.147123452889581 ], [ -118.332562010781572, 34.147807033813599 ], [ -118.331030573409393, 34.148342265191204 ], [ -118.330089248873961, 34.149756565368023 ], [ -118.329041248082007, 34.15022387312515 ], [ -118.328794410574204, 34.149760413639179 ], [ -118.328399571685949, 34.149988553690243 ], [ -118.328132490485658, 34.150150716731318 ], [ -118.328109440882386, 34.150172763218627 ], [ -118.322927279424007, 34.152829492228229 ], [ -118.321756989142543, 34.152771815431116 ], [ -118.31931554088969, 34.152640207030139 ], [ -118.318841110842527, 34.152607797556378 ], [ -118.318578245850233, 34.152582729105177 ], [ -118.318462505277637, 34.152567920683893 ], [ -118.318350051653923, 34.152548294710542 ], [ -118.31825411897988, 34.152527251208106 ], [ -118.31814328037396, 34.152498003218042 ], [ -118.318096952315926, 34.152483698751766 ], [ -118.318020826283657, 34.152456076742666 ], [ -118.317919840570866, 34.152409970976734 ], [ -118.317891696539746, 34.152396992555708 ], [ -118.31767975502575, 34.152290382364363 ], [ -118.317388300020141, 34.152134518751666 ], [ -118.317219400508847, 34.152047029907813 ], [ -118.317077010963331, 34.151977675100326 ], [ -118.316959479496745, 34.151926117070992 ], [ -118.316870107496072, 34.151891659368793 ], [ -118.316775805112314, 34.151864427698435 ], [ -118.316615370186938, 34.151829812488316 ], [ -118.316453305123986, 34.151801384057862 ], [ -118.316258207492368, 34.151777850605718 ], [ -118.316142499631511, 34.151771283516034 ], [ -118.31597558354558, 34.151771032879196 ], [ -118.315793830207767, 34.151780094854097 ], [ -118.31556420335717, 34.151803020904161 ], [ -118.315303201831057, 34.151832898036446 ], [ -118.314485537626325, 34.151934294687443 ], [ -118.31421132352915, 34.151966608219766 ], [ -118.313803324504704, 34.152019534931732 ], [ -118.313476284320728, 34.152067097217426 ], [ -118.313347470071932, 34.152091131572597 ], [ -118.310763610094597, 34.152570604837685 ], [ -118.309701022584264, 34.148598569069101 ], [ -118.309334183307385, 34.135089881794983 ], [ -118.342241280985775, 34.135305224380353 ], [ -118.342265579195612, 34.135261962130556 ], [ -118.342318125480432, 34.135182123936119 ], [ -118.342344394366535, 34.135141174838267 ], [ -118.342523482015295, 34.134894045344637 ], [ -118.342661555362994, 34.13471881930127 ], [ -118.342684551806926, 34.134685779558673 ], [ -118.343076131117243, 34.13428038618359 ], [ -118.343164946526599, 34.134181210422277 ], [ -118.343268530383284, 34.134057261743315 ], [ -118.343368799567941, 34.133930917996125 ], [ -118.343518343479559, 34.133733331864882 ], [ -118.343827237695763, 34.133312370683377 ], [ -118.343960278345307, 34.133119984117997 ], [ -118.343968487186075, 34.133107251817322 ], [ -118.343983261114218, 34.133083852801434 ], [ -118.344073528452185, 34.132936583445918 ], [ -118.344147312530694, 34.132798635946912 ], [ -118.344184998223781, 34.132721931509792 ], [ -118.34428807509812, 34.132475701860919 ], [ -118.344332208066561, 34.132359821732926 ], [ -118.344353464671997, 34.132305834046733 ], [ -118.34441235553804, 34.13216277653774 ], [ -118.344492450250783, 34.131953021595926 ], [ -118.344541552009346, 34.131840218594824 ], [ -118.344564456301129, 34.131785195720084 ], [ -118.344644792443503, 34.131634175910392 ], [ -118.344741679669639, 34.131489979444204 ], [ -118.344812347180536, 34.131398410889993 ], [ -118.344822212166719, 34.131386704261416 ], [ -118.344971816137289, 34.13120560432754 ], [ -118.345178999174294, 34.13096457251789 ], [ -118.345318769073771, 34.130802735389999 ], [ -118.345611414548046, 34.130452917419383 ], [ -118.346730882935702, 34.129084012619089 ], [ -118.346837733484719, 34.128953525279186 ], [ -118.346916615929061, 34.128851969950794 ], [ -118.346966557524979, 34.128788891330146 ], [ -118.346894062762772, 34.12872901929444 ], [ -118.346446937171493, 34.128267501281996 ], [ -118.345921713980076, 34.127759925760827 ], [ -118.345564021118605, 34.127390708254957 ], [ -118.345295754090031, 34.127113794882312 ], [ -118.345083405312906, 34.126901513716355 ], [ -118.344915501220598, 34.126670592337945 ], [ -118.344422848151567, 34.125959285897238 ], [ -118.344321955749763, 34.125783709101746 ], [ -118.344176238402255, 34.125534212289516 ], [ -118.343974722689353, 34.125247849871805 ], [ -118.343739817967418, 34.124961582085355 ], [ -118.343181204882967, 34.124444833699457 ], [ -118.342700923513249, 34.124029676439285 ], [ -118.341853730169163, 34.123317822793382 ], [ -118.341956982444586, 34.123239123314697 ], [ -118.342129913091313, 34.123108453180677 ], [ -118.342238141123389, 34.123025933095256 ], [ -118.342309425986812, 34.122971580527953 ], [ -118.342284548537478, 34.122947950530211 ], [ -118.342204891301265, 34.122860243977932 ], [ -118.342113561832164, 34.122746122082681 ], [ -118.34205546135172, 34.122677933048038 ], [ -118.342020577781227, 34.122631317831981 ], [ -118.341993943102963, 34.122581930485453 ], [ -118.341968893035158, 34.122516052280353 ], [ -118.341962175368678, 34.122489279471765 ], [ -118.341953691883717, 34.122434689389273 ], [ -118.341945323617438, 34.122408264734581 ], [ -118.341921981849836, 34.122356121079591 ], [ -118.341895340618123, 34.122305360692891 ], [ -118.341857098486315, 34.122245359023999 ], [ -118.341823931824507, 34.122214539197394 ], [ -118.341774218384884, 34.122177239040681 ], [ -118.341742700983474, 34.122145727558703 ], [ -118.341696211620558, 34.122088840521755 ], [ -118.341679591846614, 34.122064500085934 ], [ -118.341666274696408, 34.122039806826947 ], [ -118.341592895773616, 34.121871019716544 ], [ -118.341566081958419, 34.121777667631655 ], [ -118.341550936059832, 34.12170969954245 ], [ -118.341540633929185, 34.12161423988158 ], [ -118.341545421533098, 34.121573008176725 ], [ -118.341551918668074, 34.121545854517372 ], [ -118.34156172260289, 34.121519378482134 ], [ -118.341587945461669, 34.121468125137781 ], [ -118.341614235660771, 34.121433358867662 ], [ -118.341635628803871, 34.12141303279558 ], [ -118.341686700307477, 34.12137853994362 ], [ -118.341731215738946, 34.121356774544616 ], [ -118.341790592080585, 34.12133324968039 ], [ -118.341868141732817, 34.121310016868378 ], [ -118.341934177639402, 34.121298838548832 ], [ -118.342046414869912, 34.121274476125713 ], [ -118.342090956857746, 34.121259236729934 ], [ -118.342105798092433, 34.121252668510735 ], [ -118.3421469854637, 34.121225073136785 ], [ -118.342171621955913, 34.121189967941419 ], [ -118.342176416253793, 34.12115045361616 ], [ -118.342172769235546, 34.121066653650217 ], [ -118.342154255738365, 34.120983239256532 ], [ -118.342135873010719, 34.120931768576199 ], [ -118.342100995746378, 34.120886527308834 ], [ -118.341855562455493, 34.12065777302093 ], [ -118.341782616878589, 34.120594778123944 ], [ -118.341759350140066, 34.120560838923424 ], [ -118.341754288889433, 34.120535091875865 ], [ -118.341749094249309, 34.120476714150278 ], [ -118.341752276044815, 34.120446821976756 ], [ -118.34176201659902, 34.120404889289269 ], [ -118.341775132711049, 34.120380464779714 ], [ -118.341789919043279, 34.120360499946081 ], [ -118.341812979292712, 34.120343947460476 ], [ -118.341827816173421, 34.120336348833213 ], [ -118.341892151901575, 34.120313840345275 ], [ -118.341944974031279, 34.120303386366132 ], [ -118.341977996662379, 34.120299171114794 ], [ -118.342009384178056, 34.120299082298963 ], [ -118.342058970115886, 34.12030546818233 ], [ -118.342173067428789, 34.120332280509508 ], [ -118.342297124485938, 34.120370743004976 ], [ -118.342416251054644, 34.120415402970323 ], [ -118.342490720554096, 34.120446792565659 ], [ -118.342532107244622, 34.120467971335998 ], [ -118.342611609107863, 34.120518238258811 ], [ -118.342653001495748, 34.120540790910994 ], [ -118.342682786401141, 34.120552728432138 ], [ -118.342777066124953, 34.120580970318137 ], [ -118.342874618880913, 34.120601646179793 ], [ -118.342924203655343, 34.120607688227395 ], [ -118.342972119546332, 34.120609613172931 ], [ -118.343006800948274, 34.12060676687274 ], [ -118.343041461531641, 34.120599111834416 ], [ -118.343087638042761, 34.120579745613021 ], [ -118.343110692456776, 34.120561818956489 ], [ -118.343138642175603, 34.120529108550635 ], [ -118.343171446289318, 34.120471653448817 ], [ -118.343179617348071, 34.120449990704962 ], [ -118.343191009163249, 34.120408053211563 ], [ -118.343190734199098, 34.120341073553902 ], [ -118.343177301257313, 34.120288215036972 ], [ -118.343160619373322, 34.120248761650835 ], [ -118.343113989126977, 34.120157527082249 ], [ -118.343085702623952, 34.120108145570939 ], [ -118.343059128732804, 34.120073529038372 ], [ -118.342989424690614, 34.119995412337431 ], [ -118.342934624030718, 34.119926183914842 ], [ -118.342878111999497, 34.119842189575195 ], [ -118.342846458425285, 34.119777360745573 ], [ -118.34282972045699, 34.119724168082307 ], [ -118.342826306664293, 34.119697385951852 ], [ -118.342826134821976, 34.11965548129448 ], [ -118.342834219967273, 34.11961286624576 ], [ -118.342853888545918, 34.11957502712437 ], [ -118.34287197417504, 34.119554023245414 ], [ -118.342906544166524, 34.119524385475017 ], [ -118.342975755617658, 34.119482283941281 ], [ -118.343020280974812, 34.119463265013479 ], [ -118.343049979571674, 34.119454250115297 ], [ -118.343082993354031, 34.11944797367741 ], [ -118.343117671776554, 34.119444783867813 ], [ -118.343167233323328, 34.119445330122822 ], [ -118.343233348291633, 34.119454072983061 ], [ -118.343312714200479, 34.119471365287239 ], [ -118.343471465877116, 34.119510759371849 ], [ -118.343569003112449, 34.119527656380626 ], [ -118.343620239259337, 34.119533693446478 ], [ -118.343653281269027, 34.119534286468536 ], [ -118.34370115984602, 34.11952728062446 ], [ -118.343796853412172, 34.119497812244127 ], [ -118.343862835684632, 34.119474267566211 ], [ -118.343923849325861, 34.119447644726513 ], [ -118.343966706949885, 34.119424852763814 ], [ -118.344002945416847, 34.119399331747843 ], [ -118.344022691156226, 34.119380383879431 ], [ -118.344039128734366, 34.119360414970494 ], [ -118.344045671534516, 34.119344596044506 ], [ -118.344060407339029, 34.119312266524034 ], [ -118.344065251527027, 34.119285117434011 ], [ -118.344066603791148, 34.11921229480582 ], [ -118.344054564073019, 34.11909691818655 ], [ -118.344046138934914, 34.119056754448664 ], [ -118.344032759367565, 34.119016947396709 ], [ -118.344021088302569, 34.118990875773719 ], [ -118.343929499164631, 34.118813211319129 ], [ -118.343877934242911, 34.118727143363429 ], [ -118.343744931389978, 34.118521429944785 ], [ -118.343635270888797, 34.118367860605325 ], [ -118.343505762515548, 34.118208508340864 ], [ -118.343236857596224, 34.117894639370213 ], [ -118.343119023813898, 34.117761701868879 ], [ -118.343037728586907, 34.117676404933256 ], [ -118.342956501481311, 34.117607937602841 ], [ -118.342704591391694, 34.117409087536274 ], [ -118.342616780764573, 34.117346135305624 ], [ -118.342524031412154, 34.117287318826065 ], [ -118.342487573899618, 34.117259256395513 ], [ -118.342466017404888, 34.11723939536494 ], [ -118.342426194200385, 34.117196228221999 ], [ -118.342339875899597, 34.117094457785242 ], [ -118.34230479198493, 34.116998381426328 ], [ -118.342288054917674, 34.116945188692171 ], [ -118.342279574595011, 34.116891285602456 ], [ -118.342277753938674, 34.116850072587482 ], [ -118.342279293345129, 34.116822589446954 ], [ -118.342285674554404, 34.116767269426454 ], [ -118.342310005898085, 34.116657972359647 ], [ -118.342319810426076, 34.116631839747278 ], [ -118.342339481349114, 34.116594687674358 ], [ -118.342375634687698, 34.116548558301936 ], [ -118.342397020768715, 34.116526858174716 ], [ -118.34243324406701, 34.116497559339884 ], [ -118.342459609735641, 34.116481684333088 ], [ -118.342504139244454, 34.116464040421661 ], [ -118.34255365257691, 34.116453252062776 ], [ -118.342636216531332, 34.116445461349151 ], [ -118.342703949994501, 34.116446643237992 ], [ -118.342770058318095, 34.11645435590863 ], [ -118.342839268054192, 34.116470061768091 ], [ -118.342879186453942, 34.116479120736962 ], [ -118.34319342480984, 34.116569939232498 ], [ -118.343269516607464, 34.11659514100306 ], [ -118.343343973476649, 34.116624469187812 ], [ -118.343502858063061, 34.116697523441303 ], [ -118.343587284077074, 34.116740562532378 ], [ -118.343728002376153, 34.116814699491862 ], [ -118.343837285244945, 34.116876902858237 ], [ -118.343983021899177, 34.116966137673799 ], [ -118.344074121095929, 34.117024957732994 ], [ -118.344251383185494, 34.117147763979446 ], [ -118.344382239383876, 34.117233606755654 ], [ -118.344483297679389, 34.117304076612349 ], [ -118.344554567853905, 34.117361578890936 ], [ -118.344693889298384, 34.117496858106726 ], [ -118.344795034587207, 34.117588280029409 ], [ -118.344892799734112, 34.117661163335214 ], [ -118.344947444972888, 34.117692952367911 ], [ -118.345007007748237, 34.117715452346928 ], [ -118.345086379462415, 34.117734460889352 ], [ -118.345250031628211, 34.117760785312115 ], [ -118.345479766897185, 34.117788638051557 ], [ -118.34556076373822, 34.117801115425962 ], [ -118.345640128559268, 34.117818406200975 ], [ -118.345716221894321, 34.117843262948092 ], [ -118.345850262335887, 34.117899554439745 ], [ -118.345893297701579, 34.117920040368922 ], [ -118.345962836422629, 34.117957968143294 ], [ -118.346027440745544, 34.118001062277955 ], [ -118.346115332840469, 34.118082903472548 ], [ -118.346224716959696, 34.118168462271392 ], [ -118.346251216158691, 34.118184873626596 ], [ -118.346279355919265, 34.118198532397003 ], [ -118.346324023556704, 34.11821420470941 ], [ -118.346403388927712, 34.118231494983377 ], [ -118.346552139820133, 34.118249616720732 ], [ -118.346585185614956, 34.118251239383497 ], [ -118.346667773758156, 34.118248941607035 ], [ -118.346752025227673, 34.118249386880507 ], [ -118.346832991014338, 34.118253963342404 ], [ -118.3468825903594, 34.118263782053731 ], [ -118.346914024141043, 34.118275026828506 ], [ -118.346940513531166, 34.118289033667487 ], [ -118.346945554861421, 34.118309628285225 ], [ -118.346980271155246, 34.118315711347307 ], [ -118.347010141428385, 34.11834825664539 ], [ -118.347043439646214, 34.118410675273218 ], [ -118.347091834950987, 34.118528351593845 ], [ -118.347150308921286, 34.118686187573687 ], [ -118.34717205946356, 34.118752417669278 ], [ -118.347210669007239, 34.11890034871989 ], [ -118.347247800799082, 34.119090190056987 ], [ -118.347278038147209, 34.1192110098402 ], [ -118.347298079896831, 34.1192635054311 ], [ -118.34733810319122, 34.119353726928132 ], [ -118.347393218621548, 34.119498176540205 ], [ -118.347404949330496, 34.11953833054833 ], [ -118.3474151422825, 34.119605967763505 ], [ -118.347420383647631, 34.119674649666365 ], [ -118.347426368724186, 34.119922285939253 ], [ -118.347423642902669, 34.120061405139388 ], [ -118.34742540335813, 34.120087504927518 ], [ -118.347433774551831, 34.120114272681775 ], [ -118.347445449693026, 34.120141030937525 ], [ -118.34746207647369, 34.120166744502122 ], [ -118.347493596712567, 34.120198597971722 ], [ -118.347533332574969, 34.120219779778985 ], [ -118.347563120918835, 34.120232403058779 ], [ -118.347624331039469, 34.120253179595096 ], [ -118.347721898898399, 34.12027728635146 ], [ -118.347769841858835, 34.120285735529059 ], [ -118.347802894198225, 34.120288731781869 ], [ -118.348085351365981, 34.120280361951913 ], [ -118.348331446799577, 34.120267974446762 ], [ -118.348513113422342, 34.120255085274586 ], [ -118.348711268547802, 34.120234935074791 ], [ -118.34890610386401, 34.120211015800095 ], [ -118.349199978120538, 34.120167574947047 ], [ -118.349219793169667, 34.120165456784839 ], [ -118.349462533900805, 34.120141054697662 ], [ -118.349510414858386, 34.120134390029698 ], [ -118.349591305411323, 34.120120760168668 ], [ -118.34983063560172, 34.120070949325417 ], [ -118.349949491140336, 34.120049996145937 ], [ -118.350025426717352, 34.120036380340999 ], [ -118.350139359340417, 34.120023341384112 ], [ -118.350321019750879, 34.120009419055521 ], [ -118.350486199301045, 34.120004818340114 ], [ -118.350552295312966, 34.120008748466695 ], [ -118.350618408261226, 34.120016456841768 ], [ -118.350715937801127, 34.12003128720179 ], [ -118.35085978449483, 34.120060752882686 ], [ -118.350992004048337, 34.120075138824497 ], [ -118.351041571789324, 34.120077055773272 ], [ -118.351091122222442, 34.120074850933165 ], [ -118.351124142500595, 34.120069946218358 ], [ -118.351172002001249, 34.120058472165461 ], [ -118.351218190760349, 34.120042537645098 ], [ -118.351277557725538, 34.120017634198263 ], [ -118.351333606284499, 34.119989305519589 ], [ -118.351427535985962, 34.119933731366068 ], [ -118.35158247561489, 34.119851186952573 ], [ -118.351655020126472, 34.119816970893126 ], [ -118.351714402697027, 34.119795845519455 ], [ -118.35176061288648, 34.119785063002318 ], [ -118.351826653854545, 34.119775940165603 ], [ -118.3518927164952, 34.119771969503127 ], [ -118.351976963742743, 34.119771037211429 ], [ -118.3520430466222, 34.119771875196477 ], [ -118.352076097464973, 34.11977452679993 ], [ -118.352208348248084, 34.119796124502336 ], [ -118.352257930324441, 34.119801475759054 ], [ -118.352290973948584, 34.119802409900338 ], [ -118.35233720722924, 34.119797122853704 ], [ -118.352368567037956, 34.119790505214546 ], [ -118.35241476555656, 34.11977697460177 ], [ -118.352474142113948, 34.11975447493213 ], [ -118.352535154669368, 34.119728192127205 ], [ -118.352665393105923, 34.119664610941555 ], [ -118.352718113849335, 34.119630795570977 ], [ -118.352741961862648, 34.119613448949742 ], [ -118.352780698113122, 34.119585272899798 ], [ -118.352807062790461, 34.119569395634336 ], [ -118.352835091014228, 34.119556261385782 ], [ -118.352881277729026, 34.119539982749416 ], [ -118.352930785743638, 34.119527816215523 ], [ -118.352978667890028, 34.119521837138151 ], [ -118.353026581939474, 34.119523414616715 ], [ -118.353051384526594, 34.119528837925216 ], [ -118.353092719761079, 34.119537304293523 ], [ -118.353168824498681, 34.119564217236679 ], [ -118.353198619264489, 34.11957821304987 ], [ -118.353220149887051, 34.119591202553877 ], [ -118.353238367888068, 34.119602140826458 ], [ -118.353301336515884, 34.119647640264368 ], [ -118.353482156924258, 34.119826067191468 ], [ -118.353551866275552, 34.119903148299557 ], [ -118.353791076517041, 34.120216050039012 ], [ -118.353827614338627, 34.120261626572962 ], [ -118.353867447794428, 34.120305476022175 ], [ -118.353976915844271, 34.120408545327265 ], [ -118.354116182327232, 34.120526296180721 ], [ -118.354165897377413, 34.120562903396049 ], [ -118.354257008029478, 34.120622059268946 ], [ -118.354318329282265, 34.120668593465638 ], [ -118.354412895191174, 34.120763118041211 ], [ -118.35449084571357, 34.120835365658643 ], [ -118.354534044941246, 34.120893631386302 ], [ -118.354580540918192, 34.120950170002175 ], [ -118.354631984178894, 34.121004633174593 ], [ -118.354666798327386, 34.121033383753428 ], [ -118.35471815862212, 34.121068268490951 ], [ -118.354852316728284, 34.121149624092268 ], [ -118.354893711272581, 34.121171829071855 ], [ -118.354953286120931, 34.121195698070522 ], [ -118.355014487114161, 34.121213723019189 ], [ -118.355095507663222, 34.121230659253293 ], [ -118.355145096612006, 34.12123738324852 ], [ -118.355211198199612, 34.121242342170817 ], [ -118.35525911035792, 34.121243231803071 ], [ -118.35557462007074, 34.121237150811794 ], [ -118.355706827684969, 34.121248097690952 ], [ -118.355754770547406, 34.121256200220571 ], [ -118.355786192029342, 34.12126400788209 ], [ -118.355814335846091, 34.1212780079141 ], [ -118.355867348763738, 34.121312887300107 ], [ -118.356062921495564, 34.121461727255891 ], [ -118.356119300082213, 34.121511022985487 ], [ -118.356182345267953, 34.121574038441551 ], [ -118.356227121947185, 34.121614437702569 ], [ -118.356346471491548, 34.121709232114483 ], [ -118.356421047335616, 34.12176431329577 ], [ -118.356484012381472, 34.121808437158727 ], [ -118.356618174477987, 34.12188979079837 ], [ -118.356697693490474, 34.121941765859994 ], [ -118.356739083054208, 34.121962596285385 ], [ -118.356800273265989, 34.121977872484905 ], [ -118.356849855464077, 34.121982878377473 ], [ -118.357479409242202, 34.122013305558248 ], [ -118.35758019932976, 34.12201712922667 ], [ -118.357644638995055, 34.122019342955831 ], [ -118.357742136840969, 34.122025924111242 ], [ -118.357823149908583, 34.122040797633375 ], [ -118.357902538936756, 34.122062202125377 ], [ -118.357993527369246, 34.12209181584862 ], [ -118.358069641894929, 34.122120099630081 ], [ -118.358172267718857, 34.12216651040815 ], [ -118.358226916532558, 34.12219726209667 ], [ -118.358399186600039, 34.122304262188045 ], [ -118.358515156013453, 34.122380515401638 ], [ -118.358602979479713, 34.122442425646845 ], [ -118.358694182273581, 34.122521843535253 ], [ -118.358743895703213, 34.122557074943629 ], [ -118.35901222774477, 34.122720464929436 ], [ -118.359121522327897, 34.12278093708121 ], [ -118.35922743036636, 34.122822184039087 ], [ -118.359285362985446, 34.122847773216648 ], [ -118.359326762500942, 34.122870663640121 ], [ -118.359391371602428, 34.122912376713934 ], [ -118.359421177464029, 34.122928431878158 ], [ -118.359459287774186, 34.122954766887979 ], [ -118.359480913292074, 34.122989394557507 ], [ -118.359487638086392, 34.123016509872919 ], [ -118.359491064741704, 34.123045009839529 ], [ -118.359491306981909, 34.12310134066302 ], [ -118.359483229990772, 34.123143956829423 ], [ -118.359470115665204, 34.123167696300932 ], [ -118.359433883240754, 34.12319390891826 ], [ -118.359330006097665, 34.12324093175237 ], [ -118.359163409544564, 34.12330188029194 ], [ -118.35902649143911, 34.123349001044907 ], [ -118.358871405220683, 34.1233972060434 ], [ -118.358746002401816, 34.123432957280535 ], [ -118.358620583656617, 34.12346527358433 ], [ -118.358364762485863, 34.123523051778662 ], [ -118.35821951125584, 34.123553365557086 ], [ -118.358141957097757, 34.123575234942571 ], [ -118.358094118610651, 34.123591863966354 ], [ -118.358066089860088, 34.123604999435919 ], [ -118.358039726379985, 34.123621221330978 ], [ -118.358016680208038, 34.123640524759246 ], [ -118.35798708764338, 34.123674273943273 ], [ -118.357970670199052, 34.123698366519235 ], [ -118.357959211810623, 34.123723131376138 ], [ -118.357944652292858, 34.123795306347731 ], [ -118.357968122122813, 34.123874925362188 ], [ -118.357988111396182, 34.123913336479752 ], [ -118.358026367343783, 34.123973677428694 ], [ -118.358071221233558, 34.124031593522588 ], [ -118.358091139967428, 34.124053517551708 ], [ -118.358281872911419, 34.124227099218629 ], [ -118.358349938301743, 34.1243041815639 ], [ -118.358522466248701, 34.124470261060061 ], [ -118.358731463605523, 34.124664740433282 ], [ -118.358764633050143, 34.124694525179663 ], [ -118.358907261783969, 34.124822565137883 ], [ -118.359006785319636, 34.124915354913618 ], [ -118.359071920313099, 34.124986547715878 ], [ -118.359096418805137, 34.125013325366055 ], [ -118.359131315842532, 34.125060622617184 ], [ -118.359157965858373, 34.125111035730086 ], [ -118.359169643974482, 34.125137449375934 ], [ -118.359181379655652, 34.125177258766136 ], [ -118.359186569051317, 34.125231513981042 ], [ -118.359183502524758, 34.125286825086931 ], [ -118.359183799170722, 34.125355864698619 ], [ -118.359187339456227, 34.125410811784441 ], [ -118.359200907322233, 34.125492520903578 ], [ -118.35921435713631, 34.125546751568869 ], [ -118.35923103436977, 34.125583111418301 ], [ -118.359247667334202, 34.125609166845848 ], [ -118.359277549025862, 34.12564239607628 ], [ -118.359300763761013, 34.125662249201469 ], [ -118.359337227629055, 34.125689619604728 ], [ -118.359416717980011, 34.125733692827481 ], [ -118.359631834282169, 34.125813429364598 ], [ -118.359754261334459, 34.125853252784282 ], [ -118.359911409971431, 34.125899155425522 ], [ -118.360217486608363, 34.126000602178138 ], [ -118.360372994054899, 34.126048913507525 ], [ -118.360462359312208, 34.126084025991375 ], [ -118.360533553152877, 34.1261195360984 ], [ -118.360598166849314, 34.126161592011222 ], [ -118.360632992610448, 34.12619205918007 ], [ -118.360652914012888, 34.126214326268887 ], [ -118.36069282206067, 34.126273973585107 ], [ -118.360714524538238, 34.126326118549812 ], [ -118.360721248518971, 34.126352890318323 ], [ -118.36072142638146, 34.126394107995736 ], [ -118.360718242249874, 34.126421939789061 ], [ -118.360713462343099, 34.126462828777143 ], [ -118.360703726143527, 34.126503732556095 ], [ -118.360682469717304, 34.126554975263964 ], [ -118.360636528113631, 34.126628618152964 ], [ -118.360608658774993, 34.126678851024728 ], [ -118.360492528417055, 34.126950207158394 ], [ -118.360410570338658, 34.12710055544644 ], [ -118.360333576093581, 34.127252948889684 ], [ -118.360291071262864, 34.12735749505746 ], [ -118.360284764458342, 34.127382730709542 ], [ -118.360281333272042, 34.127398055322615 ], [ -118.360278145994883, 34.127425200143634 ], [ -118.360294892166763, 34.127477359958483 ], [ -118.360313296398004, 34.12753088876876 ], [ -118.360326621415695, 34.127555924358433 ], [ -118.360376496971995, 34.127627907530616 ], [ -118.360419703812397, 34.127686171164875 ], [ -118.360476170632651, 34.127754356306383 ], [ -118.360535928456315, 34.127819440239918 ], [ -118.360582356781222, 34.127858459043303 ], [ -118.36067018753387, 34.127920367795205 ], [ -118.360801068560249, 34.128004131933452 ], [ -118.360855722157424, 34.128034882437944 ], [ -118.360897118341285, 34.128056054920087 ], [ -118.360941820682612, 34.128077904485615 ], [ -118.361039524647055, 34.128130509390225 ], [ -118.361138963964024, 34.128202344196488 ], [ -118.361205222800194, 34.128242333966895 ], [ -118.361264798952334, 34.12826516942016 ], [ -118.361360742813048, 34.128292704915388 ], [ -118.36142195929456, 34.128312787506673 ], [ -118.361484809712081, 34.12832839987432 ], [ -118.361532746796442, 34.128334095748876 ], [ -118.361615368264097, 34.128337283447685 ], [ -118.361699616604284, 34.128334626975139 ], [ -118.361732645870404, 34.12833143676734 ], [ -118.361990163883831, 34.128280860481425 ], [ -118.362085902681059, 34.128260995071912 ], [ -118.362196483816462, 34.128234902379937 ], [ -118.362229504093747, 34.128229651152509 ], [ -118.362328599143609, 34.128221797470957 ], [ -118.362493804686437, 34.128219584708141 ], [ -118.362609486149694, 34.128226450912216 ], [ -118.362806192481187, 34.128249561115723 ], [ -118.363168151891486, 34.128281105211038 ], [ -118.363297097230301, 34.128298922428208 ], [ -118.363574848018416, 34.128342396872 ], [ -118.363654214208438, 34.128356584492906 ], [ -118.363769972599528, 34.128381310582213 ], [ -118.363880919697678, 34.128439370003889 ], [ -118.363986835758098, 34.12848026931659 ], [ -118.364124163447784, 34.128525882706136 ], [ -118.36451948032736, 34.128629110660292 ], [ -118.364823770089089, 34.128695859191808 ], [ -118.365323344658592, 34.128837927108513 ], [ -118.365386196616896, 34.128853880931565 ], [ -118.365546603119441, 34.12888740186375 ], [ -118.365854135790229, 34.128939711623261 ], [ -118.365984733357863, 34.128957177492275 ], [ -118.366065723021308, 34.128964832399376 ], [ -118.366164866729562, 34.128967966951876 ], [ -118.36667703559138, 34.128967101304532 ], [ -118.366827407861393, 34.128972827778455 ], [ -118.366863775721285, 34.128977182710265 ], [ -118.366906773694353, 34.12898666978333 ], [ -118.366953109139516, 34.129003703382757 ], [ -118.366994512295463, 34.129026247702768 ], [ -118.367019372900359, 34.1290440334473 ], [ -118.367055846803979, 34.129072775446552 ], [ -118.367137180638125, 34.129158743210482 ], [ -118.36721514696508, 34.129230294773649 ], [ -118.367276478727788, 34.129276135444535 ], [ -118.367355999321646, 34.129325356560102 ], [ -118.36742719993552, 34.129360862606184 ], [ -118.367503321251689, 34.129388453490584 ], [ -118.367597607240384, 34.129413928175566 ], [ -118.367678633753982, 34.129429825536128 ], [ -118.36772821497938, 34.129433453044562 ], [ -118.367794296586851, 34.129432221533804 ], [ -118.36784384154241, 34.129427605460826 ], [ -118.367891719222158, 34.129419559590197 ], [ -118.367956089268276, 34.12940459379292 ], [ -118.36806333099365, 34.129370605738139 ], [ -118.368142540513105, 34.129349068435282 ], [ -118.368223423326086, 34.12933233477559 ], [ -118.368271305454471, 34.129325319196347 ], [ -118.368337362751888, 34.129318591699494 ], [ -118.3684364675984, 34.129312792992209 ], [ -118.368651251354862, 34.129312825085265 ], [ -118.368750360722387, 34.129308057463888 ], [ -118.368849441281498, 34.1292967636304 ], [ -118.369024407011608, 34.129259476673369 ], [ -118.369138338189586, 34.129243671955578 ], [ -118.369452116071614, 34.129213173565759 ], [ -118.36950168206225, 34.129213365541055 ], [ -118.369549632348409, 34.129221806080729 ], [ -118.369597609546403, 34.129236085767516 ], [ -118.369629056584486, 34.129248698559508 ], [ -118.36965720844573, 34.129263382332027 ], [ -118.369682066649574, 34.129280480567836 ], [ -118.369703631196231, 34.1292999932691 ], [ -118.369730214499953, 34.129333574410161 ], [ -118.369765192289108, 34.129397355662704 ], [ -118.369808550948477, 34.129488246596232 ], [ -118.369818643191138, 34.129528746973648 ], [ -118.369823780494997, 34.129569605995613 ], [ -118.369825615009717, 34.129610818607915 ], [ -118.369829012023445, 34.129631760812195 ], [ -118.369834117425114, 34.129665406742021 ], [ -118.369842562102022, 34.129706942614327 ], [ -118.369852590557286, 34.129733016805517 ], [ -118.369867564859561, 34.129756671465536 ], [ -118.369907411257969, 34.129800516539973 ], [ -118.36997707109542, 34.129861100224744 ], [ -118.370082973691282, 34.129897872430206 ], [ -118.370130934638354, 34.129908373619394 ], [ -118.370180532986325, 34.12991577840809 ], [ -118.370623490826702, 34.129954608797526 ], [ -118.370820169477838, 34.129969805903848 ], [ -118.370934232807286, 34.129983882304209 ], [ -118.371000381880137, 34.129997762184921 ], [ -118.371030163530165, 34.130007288358662 ], [ -118.371059958909584, 34.130019905849963 ], [ -118.3710831791836, 34.130040100194684 ], [ -118.371098123391249, 34.130056885091484 ], [ -118.371163052003482, 34.130167974950652 ], [ -118.371181328040663, 34.130190932340597 ], [ -118.371285888688107, 34.130297092534938 ], [ -118.371362210508295, 34.130369333461054 ], [ -118.371397037363337, 34.1303987661883 ], [ -118.371461665938497, 34.130442190220094 ], [ -118.371484878794419, 34.130460667085138 ], [ -118.371531319803822, 34.130501055607347 ], [ -118.371639172331598, 34.13060445659773 ], [ -118.371657418050972, 34.130620544304968 ], [ -118.37177848329658, 34.130722531506876 ], [ -118.371838166477033, 34.130768374946349 ], [ -118.371997225133427, 34.130868870206733 ], [ -118.372095014238383, 34.130938296724757 ], [ -118.372151413258734, 34.130988615428755 ], [ -118.372176278603249, 34.131007087074543 ], [ -118.372242546472293, 34.131047414277589 ], [ -118.372312106092252, 34.131084639938223 ], [ -118.372341905109266, 34.131097944074966 ], [ -118.372373337964376, 34.131107122249659 ], [ -118.372421289626828, 34.131115561650454 ], [ -118.372503934157493, 34.131123207153607 ], [ -118.372536973297969, 34.131122074876487 ], [ -118.372601351925852, 34.131109167491388 ], [ -118.372711919758174, 34.131079972951113 ], [ -118.372855546094485, 34.13105376861003 ], [ -118.37297113469225, 34.131038985627434 ], [ -118.373185884997952, 34.13103076613325 ], [ -118.373266773029869, 34.131015059539706 ], [ -118.373344325980327, 34.130992493487533 ], [ -118.373374011593356, 34.130980379810758 ], [ -118.373430047286817, 34.130948949549449 ], [ -118.373453091914044, 34.130929643178874 ], [ -118.373472821423192, 34.130907942649884 ], [ -118.373503993411859, 34.130858727939732 ], [ -118.37352523386302, 34.130805422088741 ], [ -118.373533318249471, 34.130765896300773 ], [ -118.373533193921588, 34.130738074378371 ], [ -118.373523095128505, 34.130696543868382 ], [ -118.37349973441431, 34.130645092363032 ], [ -118.373484754320884, 34.130620407710921 ], [ -118.373454863216978, 34.130586495024701 ], [ -118.373443253483487, 34.130576569820811 ], [ -118.373420040162515, 34.1305580933318 ], [ -118.373380277484159, 34.130533485225321 ], [ -118.373297460571109, 34.130487370506138 ], [ -118.373113647626994, 34.130393479588427 ], [ -118.373058984912717, 34.13036204766388 ], [ -118.373010906399188, 34.130325099632515 ], [ -118.372971055061726, 34.130280569521084 ], [ -118.372954427617856, 34.130256920342994 ], [ -118.372906125487489, 34.130169823211737 ], [ -118.372864419868904, 34.130079958733027 ], [ -118.37280278158417, 34.12996645523635 ], [ -118.372774408357387, 34.129902311000549 ], [ -118.372761013377513, 34.129862508020864 ], [ -118.372744191556308, 34.129795236787388 ], [ -118.372738991541894, 34.12974063776683 ], [ -118.372740213311801, 34.129644114644719 ], [ -118.372731709000732, 34.129589526715087 ], [ -118.37271660067438, 34.12953598960447 ], [ -118.372706569817879, 34.129509572170541 ], [ -118.372688224597042, 34.129471158388093 ], [ -118.372663283030604, 34.129435512822177 ], [ -118.372633397277255, 34.129402630375417 ], [ -118.372567037137728, 34.129341351076356 ], [ -118.372434396725623, 34.129236652454971 ], [ -118.372331649825583, 34.129166554521092 ], [ -118.372079825062286, 34.129010700700597 ], [ -118.371991981657231, 34.128948113277204 ], [ -118.371932292050587, 34.128900552513116 ], [ -118.371899113189016, 34.12887008441627 ], [ -118.37186923251852, 34.128838231321062 ], [ -118.371835975781707, 34.128790245700074 ], [ -118.371797635861427, 34.128713766431993 ], [ -118.37179255722647, 34.128686303235384 ], [ -118.371794026037705, 34.128645080490216 ], [ -118.371797208093938, 34.128617591884314 ], [ -118.371806940639004, 34.12857703069043 ], [ -118.371826599738711, 34.128539530327195 ], [ -118.371911983558533, 34.128420765236598 ], [ -118.37193164257036, 34.128383263954873 ], [ -118.371946334474771, 34.128343374459767 ], [ -118.371956065387124, 34.128302469773587 ], [ -118.371957656382364, 34.128288725468622 ], [ -118.371955762766888, 34.128234460630274 ], [ -118.371940590992992, 34.128166497242582 ], [ -118.371920468976043, 34.128099923025971 ], [ -118.371913776416832, 34.128081051931467 ], [ -118.371770089529448, 34.127720833578692 ], [ -118.371714862851974, 34.127562313259808 ], [ -118.371710036893404, 34.127547037148894 ], [ -118.371656212593791, 34.127376667210427 ], [ -118.371599147525473, 34.127175903813146 ], [ -118.371568872144465, 34.127055090092732 ], [ -118.3715603688577, 34.1270005011827 ], [ -118.37155498353529, 34.126903998393658 ], [ -118.371556263119459, 34.126820184069473 ], [ -118.371556086020448, 34.126780340329759 ], [ -118.371559265030498, 34.126752164770416 ], [ -118.371568997473815, 34.126711603597549 ], [ -118.371580452239797, 34.126686837448673 ], [ -118.371618247430391, 34.126641037719295 ], [ -118.371641285180175, 34.126620357774129 ], [ -118.371677510675951, 34.126593110152044 ], [ -118.371733550176089, 34.126563054602713 ], [ -118.371764886545876, 34.126550936241408 ], [ -118.371829277050736, 34.126541464074045 ], [ -118.371982761501442, 34.126504925866762 ], [ -118.372108238186485, 34.126485991437903 ], [ -118.372345984895702, 34.126450223785028 ], [ -118.372494628995199, 34.126439804713996 ], [ -118.372527678530332, 34.12644142028352 ], [ -118.372607069378063, 34.126461441196938 ], [ -118.372683180575493, 34.126486967934262 ], [ -118.372722942655329, 34.126511919748054 ], [ -118.372817460921866, 34.126589599391686 ], [ -118.372839031638136, 34.126610486355723 ], [ -118.372857302761616, 34.126632413048689 ], [ -118.372900519318534, 34.126691015700018 ], [ -118.37292044410755, 34.126713280767 ], [ -118.372976839241616, 34.12676325560011 ], [ -118.373082874135392, 34.126830251458038 ], [ -118.373139175919007, 34.126859273905275 ], [ -118.373198749744688, 34.126881073033907 ], [ -118.37324670980189, 34.126891916469901 ], [ -118.373329362504307, 34.126902309251825 ], [ -118.373461570205194, 34.12691048796195 ], [ -118.37354582593963, 34.126909884115499 ], [ -118.373626737550424, 34.12690035993149 ], [ -118.373669240095253, 34.12688905400298 ], [ -118.373689443765485, 34.126883678789653 ], [ -118.373841180690832, 34.126825847539671 ], [ -118.373869204969679, 34.126812021449929 ], [ -118.373908742793915, 34.126786481239165 ], [ -118.373967998686823, 34.126737179528341 ], [ -118.373997588956783, 34.126704113390204 ], [ -118.374018903342204, 34.126667638001692 ], [ -118.374040147010788, 34.126615362507259 ], [ -118.374066157883973, 34.126520822669939 ], [ -118.374088678524032, 34.12638473281735 ], [ -118.374137936395812, 34.125947322749461 ], [ -118.374160516723094, 34.125824628623917 ], [ -118.374181570978251, 34.125730105007641 ], [ -118.374210827143315, 34.125622502654473 ], [ -118.374233660995273, 34.125556482793755 ], [ -118.3742582160871, 34.125505914434449 ], [ -118.374281180590216, 34.125469090404714 ], [ -118.374314009838727, 34.125421587778867 ], [ -118.374369874237345, 34.125353061199185 ], [ -118.37441919179787, 34.125298294283425 ], [ -118.374516241906406, 34.12520353426595 ], [ -118.374609974265724, 34.12510603747269 ], [ -118.374647768621159, 34.125060580278259 ], [ -118.374670737448767, 34.125024786616336 ], [ -118.374685302594528, 34.124986546088216 ], [ -118.374695230536759, 34.12496047895057 ], [ -118.374711512538596, 34.124907188263457 ], [ -118.374752022662321, 34.124730510357281 ], [ -118.374758439963301, 34.124687898291576 ], [ -118.37476150386577, 34.124634305095817 ], [ -118.374759606973171, 34.124579696825982 ], [ -118.374749078712327, 34.124442335378475 ], [ -118.37473824253307, 34.124236276938667 ], [ -118.374737751355525, 34.124126706674872 ], [ -118.374742521189361, 34.124085130174088 ], [ -118.37475714940436, 34.124031501123781 ], [ -118.374776738356175, 34.123978887145313 ], [ -118.374807845392439, 34.123915932889616 ], [ -118.374827569814329, 34.123893545182469 ], [ -118.374997058055996, 34.123742915502802 ], [ -118.375020549257613, 34.123726055114375 ], [ -118.375085983134539, 34.123679094804253 ], [ -118.375203059015533, 34.123629956519117 ], [ -118.375292099467146, 34.123591896702038 ], [ -118.375331663550782, 34.123572882159685 ], [ -118.375349798946658, 34.123564582195634 ] ], [ [ -118.360799922084652, 34.141901227704686 ], [ -118.360811260094763, 34.141082667754404 ], [ -118.36107537783063, 34.140638095409905 ], [ -118.361920129073653, 34.139198423689088 ], [ -118.362244889138339, 34.13864237800059 ], [ -118.361829988170982, 34.138605837194326 ], [ -118.359540914898872, 34.139245024088311 ], [ -118.358610102592493, 34.139507464573079 ], [ -118.356854087480485, 34.138067616353354 ], [ -118.355849255012771, 34.137243464499299 ], [ -118.354872631956596, 34.136442922027022 ], [ -118.354249190912157, 34.135930896056315 ], [ -118.353716962462258, 34.135496571141879 ], [ -118.353183072764324, 34.135058813907769 ], [ -118.35252152014003, 34.134515976796052 ], [ -118.352105363376126, 34.134175421196922 ], [ -118.352016231659945, 34.134196976862086 ], [ -118.351807908099644, 34.134164265293947 ], [ -118.351632651684824, 34.134136952942228 ], [ -118.351601143395371, 34.13410956579164 ], [ -118.351617580614601, 34.134089252363687 ], [ -118.351612459157295, 34.134050109968243 ], [ -118.3516089509381, 34.134001688784586 ], [ -118.351555917303202, 34.13396337271142 ], [ -118.351481382889034, 34.133919966859189 ], [ -118.351357152777013, 34.133846134351757 ], [ -118.351264360200545, 34.133782859304446 ], [ -118.351145052932566, 34.133701113021232 ], [ -118.351068738331691, 34.133627141921167 ], [ -118.35098579328745, 34.133548037750742 ], [ -118.350916010035817, 34.133455499400306 ], [ -118.350803080054007, 34.133318088796109 ], [ -118.350706762084926, 34.133201926864572 ], [ -118.350585691592883, 34.133093393319733 ], [ -118.350265958266391, 34.132890632714833 ], [ -118.350078746385577, 34.132769237873973 ], [ -118.349917926317204, 34.132637461799369 ], [ -118.349793577317882, 34.13253443271833 ], [ -118.349679164895107, 34.132436869624428 ], [ -118.349469777124597, 34.132148604294564 ], [ -118.349303670668007, 34.131937153277683 ], [ -118.349154209008731, 34.131754851083009 ], [ -118.348981505735779, 34.131546166564569 ], [ -118.348940325366542, 34.13151612818956 ], [ -118.348782634481566, 34.131401102932593 ], [ -118.348611966694307, 34.131679818989376 ], [ -118.348469174747891, 34.131907961253646 ], [ -118.348418363395666, 34.132006000939576 ], [ -118.348546611236856, 34.132251910834327 ], [ -118.348663182916852, 34.132471405031538 ], [ -118.34856818236851, 34.132670214232675 ], [ -118.348460075273479, 34.132895852068664 ], [ -118.348037557009533, 34.133005611486709 ], [ -118.34774211625141, 34.133080654519496 ], [ -118.347474741081939, 34.13315012039633 ], [ -118.347622439348214, 34.133305981398749 ], [ -118.347778432210575, 34.133469719415004 ], [ -118.347679859628542, 34.133604992568721 ], [ -118.347394386621346, 34.133693401989419 ], [ -118.347120454788126, 34.133776281833697 ], [ -118.346729367096785, 34.133896594436926 ], [ -118.346726633960216, 34.134034339747267 ], [ -118.346727326421146, 34.13420127145433 ], [ -118.346618574255814, 34.134273028216889 ], [ -118.34650159339769, 34.134352709524599 ], [ -118.346545263986954, 34.134524326819118 ], [ -118.346568931052076, 34.134653409315199 ], [ -118.346152701781719, 34.134688606947265 ], [ -118.346007287377219, 34.134685244930274 ], [ -118.345870134277163, 34.1346818591011 ], [ -118.345730586279814, 34.134898654726278 ], [ -118.345589369329915, 34.135111332239788 ], [ -118.345452607356307, 34.135202746665307 ], [ -118.345235150539906, 34.13535896749741 ], [ -118.34500282134708, 34.135515229482301 ], [ -118.344834789511935, 34.135636959123111 ], [ -118.34467003200659, 34.135751466910882 ], [ -118.344497041281144, 34.13587321021911 ], [ -118.344370190570203, 34.135964595168765 ], [ -118.344220269820696, 34.136071159017725 ], [ -118.344270574080511, 34.136249628840744 ], [ -118.344322513864924, 34.136423971264698 ], [ -118.344404570265667, 34.136689252283063 ], [ -118.344433158985311, 34.136810421019746 ], [ -118.34436451238679, 34.13699266362206 ], [ -118.344251676172703, 34.137277734939723 ], [ -118.344155293043997, 34.137545928548491 ], [ -118.344098008170761, 34.137679020302578 ], [ -118.34403591993032, 34.137849222075651 ], [ -118.343984894462807, 34.13789711169089 ], [ -118.343914130101709, 34.137966697896388 ], [ -118.343812078825138, 34.138062477002812 ], [ -118.343551294087888, 34.13813225889534 ], [ -118.343232768782812, 34.138224187217958 ], [ -118.344036763373708, 34.140061267398409 ], [ -118.345076074733385, 34.142452744514642 ], [ -118.346664867856305, 34.142247946345357 ], [ -118.346955544468102, 34.14221139002224 ], [ -118.347505508701929, 34.142140426419438 ], [ -118.348381747351041, 34.142248850156527 ], [ -118.349725879766922, 34.142417398725357 ], [ -118.351608688835597, 34.142580589424448 ], [ -118.352673256006867, 34.142674694794138 ], [ -118.353847798421597, 34.142984178508712 ], [ -118.354231263365378, 34.143007099478432 ], [ -118.357265904556868, 34.143182277584707 ], [ -118.358414164481047, 34.143137317073823 ], [ -118.359129538638797, 34.143105654353228 ], [ -118.360267146100583, 34.142889995738486 ], [ -118.361155413999654, 34.142716975830695 ], [ -118.360795718133701, 34.142075731631451 ], [ -118.360799922084652, 34.141901227704686 ] ] ] } }
]
}
