{
"type": "FeatureCollection",
"name": "division_boundary",
"crs": { "type": "name", "properties": { "name": "urn:ogc:def:crs:OGC:1.3:CRS84" } },
"features": [
{ "type": "Feature", "properties": { "APREC": "FOOTHILL", "OBJECTID": 27, "REPDIST": 1603, "PREC": 16, "BUREAU": "VALLEY BUREAU", "BASICCAR": "16A35", "TOOLTIP": "Bureau: VALLEY BUREAU\\nDistrict: 1603\\nDivision: FOOTHILL" }, "geometry": { "type": "Polygon", "coordinates": [ [ [ -118.400228408559073, 34.208487707957552 ], [ -118.40234686363803, 34.208489268686087 ], [ -118.40465715584368, 34.208491181309498 ], [ -118.40522114548979, 34.208504063564334 ], [ -118.405213847303571, 34.208363258740249 ], [ -118.40521256290377, 34.208317494657003 ], [ -118.405209848228637, 34.208220725436419 ], [ -118.40521523807999, 34.207968244259675 ], [ -118.405219815863148, 34.207889227143248 ], [ -118.405227722708091, 34.207814664194686 ], [ -118.40525021948902, 34.207679598837416 ], [ -118.405263205720559, 34.207629405478365 ], [ -118.405336456812904, 34.207389063362058 ], [ -118.405357639723647, 34.207324073533847 ], [ -118.405378884291508, 34.207271792477968 ], [ -118.405400147173978, 34.207223289703144 ], [ -118.405488630906007, 34.207055027612519 ], [ -118.405521441116306, 34.207000646851618 ], [ -118.405619981597383, 34.206860174223927 ], [ -118.405705272278055, 34.206715623212958 ], [ -118.405875845500859, 34.206424805408076 ], [ -118.405927102097195, 34.2063099460728 ], [ -118.406133750717913, 34.206936772676919 ], [ -118.407668434696532, 34.212595296807557 ], [ -118.407964912829456, 34.213637717993528 ], [ -118.408537957673289, 34.215756014857888 ], [ -118.408538870499143, 34.215759372710309 ], [ -118.409210879704645, 34.21823290800198 ], [ -118.409648280443491, 34.219861044030417 ], [ -118.409818430758563, 34.220478868135856 ], [ -118.410059423889606, 34.221386801375409 ], [ -118.410120044406355, 34.221689512790959 ], [ -118.410872486263941, 34.224384555746916 ], [ -118.410892721625444, 34.224490918141719 ], [ -118.410913158481421, 34.224638212391945 ], [ -118.410933494685068, 34.22476504116004 ], [ -118.41096390844028, 34.224936863932399 ], [ -118.410984708218479, 34.225157840564378 ], [ -118.411005992794713, 34.225477058878212 ], [ -118.411007564509902, 34.225796344142793 ], [ -118.410999198545809, 34.226099289420503 ], [ -118.41095181239352, 34.22648423590406 ], [ -118.410894207102061, 34.226795535243603 ], [ -118.410826542751735, 34.227065933456394 ], [ -118.410671098779147, 34.227524930238317 ], [ -118.410532730463729, 34.227914373810933 ], [ -118.410184640620869, 34.228820115269897 ], [ -118.40993203184361, 34.229565982578855 ], [ -118.409825579334097, 34.229967503293494 ], [ -118.409788000818864, 34.23034423010705 ], [ -118.409740245063517, 34.230655494613345 ], [ -118.40974193257577, 34.230999340984553 ], [ -118.409784612381785, 34.231428535117253 ], [ -118.409824242413464, 34.23170313838088 ], [ -118.409896926128113, 34.232033606192289 ], [ -118.410064624627239, 34.232480082941343 ], [ -118.410241900923509, 34.232991535114571 ], [ -118.410394567088332, 34.233431977890035 ], [ -118.410951433594335, 34.234033080310397 ], [ -118.411501060518233, 34.234624290592485 ], [ -118.412083801693214, 34.235141251261965 ], [ -118.41329416543951, 34.236221344654986 ], [ -118.414661457146536, 34.237439891277994 ], [ -118.41611782018613, 34.238799955411551 ], [ -118.417284837481603, 34.239928289577193 ], [ -118.418787123459538, 34.241340927866524 ], [ -118.420356736648017, 34.242818181360782 ], [ -118.422083328579134, 34.244433871089029 ], [ -118.42556881116495, 34.2477407875636 ], [ -118.42872190489021, 34.250716016134561 ], [ -118.429304738641491, 34.251265941048992 ], [ -118.435012382742642, 34.256690626046471 ], [ -118.438273695262666, 34.259730934848861 ], [ -118.438490566003281, 34.259936883245679 ], [ -118.438957581139363, 34.260362440069322 ], [ -118.439291338066255, 34.260698894589545 ], [ -118.439800730100814, 34.261289682652162 ], [ -118.440118148738918, 34.261674432015639 ], [ -118.440343947091364, 34.261997493356979 ], [ -118.440578192666948, 34.262348089000128 ], [ -118.440728932963751, 34.262602511815665 ], [ -118.440879674179655, 34.26285693444246 ], [ -118.441172568975645, 34.263310682220485 ], [ -118.441490657800671, 34.263819465640935 ], [ -118.442073869172944, 34.264756349050145 ], [ -118.441842315851616, 34.265039993616689 ], [ -118.441383814759291, 34.265580317607082 ], [ -118.440999107451617, 34.266076835744158 ], [ -118.440642026585039, 34.266553099091212 ], [ -118.440534722808238, 34.266701308618444 ], [ -118.440270754998153, 34.267065902761509 ], [ -118.439804782707157, 34.267781452926677 ], [ -118.439391943718206, 34.268484195014452 ], [ -118.438797476336603, 34.269595288871123 ], [ -118.438354487983673, 34.270458994570355 ], [ -118.437553884600149, 34.271930146511366 ], [ -118.437042233160454, 34.27287551335867 ], [ -118.436633019602127, 34.273654004339562 ], [ -118.4360610969063, 34.274700495290915 ], [ -118.435772025187333, 34.27521113704173 ], [ -118.435530914496312, 34.275595465898903 ], [ -118.435283460098546, 34.275929362459216 ], [ -118.434927102424268, 34.276359514832897 ], [ -118.434528221058017, 34.276794864659514 ], [ -118.434185646257717, 34.277093332607393 ], [ -118.433940396641475, 34.277296325889573 ], [ -118.433764189484336, 34.277432522490912 ], [ -118.433932553953909, 34.277592571622115 ], [ -118.433803664377578, 34.277690900865508 ], [ -118.433790633695068, 34.277700841933623 ], [ -118.432535685082783, 34.278672856930072 ], [ -118.43067474614702, 34.280487604588771 ], [ -118.428075934735944, 34.282386684546324 ], [ -118.427294253357005, 34.282950702432629 ], [ -118.424035617448169, 34.285328436499405 ], [ -118.424024940136974, 34.285336220802584 ], [ -118.417133472351125, 34.290360442055416 ], [ -118.418646952546112, 34.29177416246425 ], [ -118.415805014422332, 34.293843155085057 ], [ -118.415672284423877, 34.293939781322528 ], [ -118.414443951424303, 34.292784385584213 ], [ -118.413236353341347, 34.291648458366311 ], [ -118.411295646974182, 34.289822930589111 ], [ -118.410314444194768, 34.288899532548136 ], [ -118.40973566968043, 34.28834641821944 ], [ -118.409512785828795, 34.288128370775361 ], [ -118.409120294513713, 34.287754266518085 ], [ -118.409015521481876, 34.287654666070253 ], [ -118.408792640278577, 34.287436618202491 ], [ -118.408627998772843, 34.287280199961273 ], [ -118.408426768680883, 34.28708852677002 ], [ -118.408413459242126, 34.287074832226331 ], [ -118.408313662124201, 34.286976931822892 ], [ -118.4081540140253, 34.286825991877578 ], [ -118.407899959224707, 34.287002026500915 ], [ -118.40754347189467, 34.287240235485008 ], [ -118.40617160971702, 34.285937874916435 ], [ -118.401638551494642, 34.286438683676316 ], [ -118.401228265618059, 34.288050492908802 ], [ -118.401126800617178, 34.288449088470472 ], [ -118.400787551483859, 34.28846841641554 ], [ -118.400911490344313, 34.290146967583084 ], [ -118.400485391090029, 34.291731505316456 ], [ -118.40031471411433, 34.292385723606635 ], [ -118.399784996584387, 34.293424802567003 ], [ -118.397011940555714, 34.293379997396634 ], [ -118.396942982824385, 34.294195659013525 ], [ -118.396732788802055, 34.296990608812088 ], [ -118.393690142318164, 34.297024581189341 ], [ -118.393640517509681, 34.298787513496684 ], [ -118.387397480780962, 34.298783942205795 ], [ -118.387367577631409, 34.296979018560066 ], [ -118.382852879325839, 34.296945284988325 ], [ -118.382926632800675, 34.294258648445066 ], [ -118.382950508340471, 34.293329098864945 ], [ -118.382387561586484, 34.293306833609243 ], [ -118.382379371933894, 34.291520044993554 ], [ -118.386901830261891, 34.291505681635066 ], [ -118.386872024860068, 34.289718961992619 ], [ -118.384653938242124, 34.289738050250669 ], [ -118.384646501682084, 34.288125062716688 ], [ -118.385209910206285, 34.286462172703999 ], [ -118.385765131298811, 34.284823350901227 ], [ -118.38291757800836, 34.284154584391331 ], [ -118.38180978204872, 34.283894390913318 ], [ -118.378370105795227, 34.283509491023423 ], [ -118.37711149816063, 34.283369495768625 ], [ -118.374793822002587, 34.283658350039502 ], [ -118.374682517760263, 34.282831236488398 ], [ -118.372666518709792, 34.282843640150631 ], [ -118.37353537096493, 34.283182731982166 ], [ -118.373518890920238, 34.286157027555724 ], [ -118.369842426384906, 34.286138428107797 ], [ -118.370172630635196, 34.285573415508026 ], [ -118.370378371793564, 34.284937337782146 ], [ -118.370534664153425, 34.284349154553439 ], [ -118.370533785528849, 34.284151309721082 ], [ -118.370511175593208, 34.283905442538256 ], [ -118.370504049883635, 34.283791770711666 ], [ -118.370546205168125, 34.283593450719067 ], [ -118.37068233595069, 34.283311375256737 ], [ -118.371345163082523, 34.28236097977814 ], [ -118.370961425251281, 34.282217620736915 ], [ -118.370169671843925, 34.281921825345727 ], [ -118.369527694502764, 34.283470847383882 ], [ -118.368912684930507, 34.283262852131315 ], [ -118.368112632568469, 34.282006067127618 ], [ -118.367498114752394, 34.280403511255017 ], [ -118.367410225808271, 34.280365994574268 ], [ -118.367283794372298, 34.280596856732473 ], [ -118.364321767340883, 34.280764151273104 ], [ -118.361311619946903, 34.279759887113435 ], [ -118.360488141445003, 34.279942328543392 ], [ -118.358429130512008, 34.279558584125319 ], [ -118.354763369827012, 34.278873820101332 ], [ -118.351744284292678, 34.27884656168667 ], [ -118.351735024978069, 34.280183778717728 ], [ -118.351723214762416, 34.282486541440157 ], [ -118.334253120772416, 34.282446094328172 ], [ -118.334240743552812, 34.28244606448272 ], [ -118.326813746939877, 34.282424431148812 ], [ -118.326852817749241, 34.284792657669065 ], [ -118.326886149800814, 34.286118078063758 ], [ -118.316909791252272, 34.286120552267249 ], [ -118.316754286633227, 34.286120851825835 ], [ -118.29949141201989, 34.286152859859541 ], [ -118.299323087951635, 34.29321704764385 ], [ -118.29062391542368, 34.293232052227104 ], [ -118.290607470956843, 34.292788309056917 ], [ -118.286307954117319, 34.292666650633592 ], [ -118.286324003558747, 34.292078426976254 ], [ -118.286649048627623, 34.280163333523795 ], [ -118.286707335661717, 34.27834032032343 ], [ -118.273688910294311, 34.278070581850713 ], [ -118.273626216787207, 34.28065544795934 ], [ -118.273599923407801, 34.281722714709531 ], [ -118.247479107324182, 34.281629155329334 ], [ -118.238802515595111, 34.281592649633161 ], [ -118.238828392026775, 34.277910786043044 ], [ -118.238913275843686, 34.267092911916144 ], [ -118.248020605753695, 34.26723637996681 ], [ -118.25343700930037, 34.267207302125755 ], [ -118.256708709115927, 34.267194570239838 ], [ -118.256694297283289, 34.26681333245179 ], [ -118.256512238996919, 34.252269880578318 ], [ -118.26521485874926, 34.252382064583713 ], [ -118.265278694981433, 34.252382884840884 ], [ -118.265308405566387, 34.25027794319702 ], [ -118.266689932752783, 34.25078463905173 ], [ -118.266701823583034, 34.247774310521443 ], [ -118.266101238579608, 34.247775632309171 ], [ -118.266051150366479, 34.245557172399458 ], [ -118.266010013863124, 34.244070315367267 ], [ -118.266011477814089, 34.242972190802043 ], [ -118.266015716427489, 34.242744794829321 ], [ -118.266024044714555, 34.242243287530457 ], [ -118.266027081379789, 34.241638747446281 ], [ -118.266033925184075, 34.240671478580317 ], [ -118.266034600954654, 34.240364401153798 ], [ -118.266744045264048, 34.240794600498191 ], [ -118.266802858133374, 34.232279475400354 ], [ -118.266814645062254, 34.23133023519356 ], [ -118.266814698615221, 34.231325934758793 ], [ -118.266839132069933, 34.227584297893003 ], [ -118.266885318364004, 34.221851429219775 ], [ -118.284461963987368, 34.221721737614189 ], [ -118.291782384123934, 34.221668241633111 ], [ -118.293752239436273, 34.221651453776019 ], [ -118.304205249514425, 34.221577539175392 ], [ -118.319314062283354, 34.221454802931689 ], [ -118.322955583846451, 34.221427613020808 ], [ -118.323096644564103, 34.221426557605376 ], [ -118.337418935206514, 34.221315965008714 ], [ -118.337476047140484, 34.221315519955624 ], [ -118.334555439007602, 34.215623140020568 ], [ -118.335234233359458, 34.215385973059675 ], [ -118.336430016590811, 34.214572370871331 ], [ -118.336046965301918, 34.214321660720636 ], [ -118.337713713533304, 34.212601995096946 ], [ -118.337753006439598, 34.211276716940368 ], [ -118.339578913196263, 34.211304924154675 ], [ -118.339819936634115, 34.2111991409853 ], [ -118.339853989593024, 34.209813766859369 ], [ -118.339941418764212, 34.206509530875962 ], [ -118.342432067417832, 34.206551625458509 ], [ -118.343136193731027, 34.206562348445857 ], [ -118.343465015265195, 34.206567355622298 ], [ -118.344305839439059, 34.206582373445009 ], [ -118.345432093631558, 34.206602176565447 ], [ -118.346417774003811, 34.206619623908054 ], [ -118.347686239795507, 34.206637281342267 ], [ -118.34908701111118, 34.206657291683499 ], [ -118.350381834842963, 34.206677919943807 ], [ -118.350674674845521, 34.206682583497631 ], [ -118.353605209488123, 34.206722141833779 ], [ -118.362984390316484, 34.206862012699474 ], [ -118.36319893871071, 34.208317500183838 ], [ -118.363220834858026, 34.208466044656291 ], [ -118.36375995228552, 34.20846545541292 ], [ -118.364851418356125, 34.208464573305349 ], [ -118.365970993079657, 34.208462565873241 ], [ -118.367047575635283, 34.208461708972671 ], [ -118.368175420366285, 34.20845999953724 ], [ -118.369531479060427, 34.208457582772063 ], [ -118.37032362876154, 34.208459282552774 ], [ -118.371979247942974, 34.208462544667924 ], [ -118.374687894046417, 34.208467828621309 ], [ -118.37502056555104, 34.208468470262424 ], [ -118.376870853880064, 34.208472040044043 ], [ -118.37781514998936, 34.208473903722691 ], [ -118.379062074720508, 34.208474468770028 ], [ -118.380145278405379, 34.208474848519593 ], [ -118.381230135816423, 34.208475213360323 ], [ -118.382333185689774, 34.208475854470471 ], [ -118.383421352132757, 34.208476532692018 ], [ -118.384483057551179, 34.208476941733267 ], [ -118.385561301728018, 34.208477632239223 ], [ -118.386652774061673, 34.208477927376222 ], [ -118.387792205764981, 34.208478402441457 ], [ -118.390026419963235, 34.208479464322544 ], [ -118.391056703760839, 34.208479916967093 ], [ -118.391686781351723, 34.208479939702741 ], [ -118.39214817775472, 34.208480506008307 ], [ -118.393241307097043, 34.208481423308456 ], [ -118.394339398695735, 34.208482314558516 ], [ -118.396514081488831, 34.208484137625014 ], [ -118.398155105352643, 34.208485765019581 ], [ -118.400228408559073, 34.208487707957552 ] ] ] } }
]
}
